{
  "type": "FeatureCollection",
  "features": [
    {
      "type": "Feature",
      "geometry": {
        "type": "LineString",
        "coordinates": [
          [
            -40.40510214553099,
            -19.9335676573608,
            42.614
          ],
          [
            -40.40499043218473,
            -19.93374865990319,
            42.614
          ],
          [
            -40.40500577789412,
            -19.93395974721033,
            42.614
          ],
          [
            -40.40506449977573,
            -19.93416123305446,
            42.614
          ],
          [
            -40.40550349485539,
            -19.93481785458538,
            42.614
          ],
          [
            -40.40563366291629,
            -19.93501278642775,
            42.614
          ],
          [
            -40.4057893486059,
            -19.93520945990027,
            42.614
          ],
          [
            -40.40624526201913,
            -19.93579170482922,
            42.614
          ],
          [
            -40.40636577439093,
            -19.93601205545026,
            42.614
          ],
          [
            -40.40644746888127,
            -19.93623992385423,
            42.614
          ],
          [
            -40.40646025233636,
            -19.93637904946024,
            42.614
          ],
          [
            -40.40653435732118,
            -19.9369678010107,
            42.614
          ],
          [
            -40.40657536159217,
            -19.93794801430912,
            42.614
          ],
          [
            -40.40660100570709,
            -19.93928538359775,
            42.614
          ],
          [
            -40.4065619499381,
            -19.93985971988174,
            42.614
          ],
          [
            -40.40644067370687,
            -19.94051668809756,
            42.614
          ],
          [
            -40.40628416813139,
            -19.94125883117172,
            42.614
          ],
          [
            -40.40606895418744,
            -19.94218331252921,
            42.614
          ],
          [
            -40.4060141875113,
            -19.94250358091729,
            42.614
          ],
          [
            -40.40601424654817,
            -19.94283895684153,
            42.614
          ],
          [
            -40.40604170899246,
            -19.94312240092327,
            42.614
          ],
          [
            -40.40610440741195,
            -19.94335798495644,
            42.614
          ],
          [
            -40.40624725052157,
            -19.94369682129813,
            42.614
          ],
          [
            -40.40650969458822,
            -19.94409802422281,
            42.614
          ],
          [
            -40.40688961978509,
            -19.94448448401023,
            42.614
          ],
          [
            -40.40835816111984,
            -19.94574277375527,
            42.614
          ],
          [
            -40.40885057054563,
            -19.94625378140373,
            42.614
          ],
          [
            -40.40903468546112,
            -19.94655560364075,
            42.614
          ],
          [
            -40.40919530229503,
            -19.9468427056634,
            42.614
          ],
          [
            -40.40928541352309,
            -19.94704515375104,
            42.614
          ],
          [
            -40.40936699709037,
            -19.94739160493138,
            42.614
          ],
          [
            -40.40939446752917,
            -19.94768241114303,
            42.614
          ],
          [
            -40.40935155094569,
            -19.94849438062658,
            42.614
          ],
          [
            -40.40928896876463,
            -19.94887723135556,
            42.614
          ],
          [
            -40.40917950292965,
            -19.94982450825362,
            42.614
          ],
          [
            -40.40908568050023,
            -19.95066899261099,
            42.614
          ],
          [
            -40.40898792493365,
            -19.95143108084392,
            42.614
          ],
          [
            -40.40888620706094,
            -19.95195750233207,
            42.614
          ],
          [
            -40.40880795104987,
            -19.95230354415832,
            42.614
          ],
          [
            -40.40860054779352,
            -19.9531163963135,
            42.614
          ],
          [
            -40.40829528168909,
            -19.95416028142757,
            42.614
          ],
          [
            -40.40795405759495,
            -19.95548902499843,
            42.614
          ],
          [
            -40.40783665707575,
            -19.9559565494061,
            42.614
          ],
          [
            -40.40777016827075,
            -19.95642406544615,
            42.614
          ],
          [
            -40.40767631983366,
            -19.95718671727539,
            42.614
          ],
          [
            -40.40761380922805,
            -19.957991529052,
            42.614
          ],
          [
            -40.40745338028329,
            -19.9587498607773,
            42.614
          ],
          [
            -40.40731251607091,
            -19.95942353381033,
            42.614
          ],
          [
            -40.40704090356554,
            -19.96064725342141,
            42.614
          ],
          [
            -40.40677087237556,
            -19.96175414561397,
            42.614
          ],
          [
            -40.40656347891581,
            -19.96273893708033,
            42.614
          ],
          [
            -40.40654787549032,
            -19.96308496707133,
            42.614
          ],
          [
            -40.40653226400646,
            -19.96338682415363,
            42.614
          ],
          [
            -40.40650895644924,
            -19.96444881640255,
            42.614
          ],
          [
            -40.40645434195447,
            -19.96565352809346,
            42.614
          ],
          [
            -40.40645066393878,
            -19.96698003836056,
            42.614
          ],
          [
            -40.40651339394365,
            -19.96734078070958,
            42.614
          ],
          [
            -40.40664271509658,
            -19.96774936880773,
            42.614
          ],
          [
            -40.40665055028884,
            -19.96776041105768,
            42.614
          ],
          [
            -40.40691700906906,
            -19.96847819820055,
            42.614
          ],
          [
            -40.40725395508467,
            -19.96911498283675,
            42.614
          ],
          [
            -40.40775934897368,
            -19.96989657326395,
            42.614
          ],
          [
            -40.40826967058686,
            -19.97053319677395,
            42.614
          ],
          [
            -40.40841071493868,
            -19.97076140448075,
            42.614
          ],
          [
            -40.4084969381975,
            -19.97104852060463,
            42.614
          ],
          [
            -40.40854792671365,
            -19.97142695264325,
            42.614
          ],
          [
            -40.40855972736667,
            -19.97168463154486,
            42.614
          ],
          [
            -40.40843840159047,
            -19.97216724948423,
            42.614
          ],
          [
            -40.40826222590696,
            -19.97256116241031,
            42.614
          ],
          [
            -40.40785507890804,
            -19.97357600776827,
            42.614
          ],
          [
            -40.40726781466932,
            -19.97490486323794,
            42.614
          ],
          [
            -40.40708313661375,
            -19.97541547478047,
            42.614
          ],
          [
            -40.4070479461878,
            -19.97574678323694,
            42.614
          ],
          [
            -40.40703232967456,
            -19.97602287122614,
            42.614
          ],
          [
            -40.40708331324707,
            -19.97637625262918,
            42.614
          ],
          [
            -40.40715779141368,
            -19.97669281941884,
            42.614
          ],
          [
            -40.40726751004213,
            -19.97694680176311,
            42.614
          ],
          [
            -40.40765541818926,
            -19.97770761688839,
            42.614
          ],
          [
            -40.40812844213965,
            -19.9787911618996,
            42.614
          ],
          [
            -40.40838312431551,
            -19.97923068610106,
            42.614
          ],
          [
            -40.40872994598865,
            -19.97970500141067,
            42.614
          ],
          [
            -40.40915597882535,
            -19.98008143650835,
            42.614
          ],
          [
            -40.40960256724036,
            -19.98038321194774,
            42.614
          ],
          [
            -40.41208294362036,
            -19.98136230491508,
            42.614
          ],
          [
            -40.41261530014324,
            -19.98166702681185,
            42.614
          ],
          [
            -40.41292871135609,
            -19.98191360268248,
            42.614
          ],
          [
            -40.41317162770692,
            -19.982200684923,
            42.614
          ],
          [
            -40.41343024766002,
            -19.98263501068411,
            42.614
          ],
          [
            -40.41351649254793,
            -19.98294421163843,
            42.614
          ],
          [
            -40.41368515212347,
            -19.98394946569178,
            42.614
          ],
          [
            -40.41391608958249,
            -19.9854537899577,
            42.614
          ],
          [
            -40.41416522359967,
            -19.98719289985738,
            42.614
          ],
          [
            -40.41420447991307,
            -19.98756100793632,
            42.614
          ],
          [
            -40.41419670748826,
            -19.98782605341109,
            42.614
          ],
          [
            -40.41409103153929,
            -19.98821420819298,
            42.614
          ],
          [
            -40.41388745002646,
            -19.98869841105209,
            42.614
          ],
          [
            -40.41361336887167,
            -19.98922642771422,
            42.614
          ],
          [
            -40.41348419782057,
            -19.9896461040708,
            42.614
          ],
          [
            -40.41346075080192,
            -19.98989274590899,
            42.614
          ],
          [
            -40.4134529717916,
            -19.9901357039312,
            42.614
          ],
          [
            -40.41352745390049,
            -19.99039042404756,
            42.614
          ],
          [
            -40.41366070524916,
            -19.99068489042781,
            42.614
          ],
          [
            -40.41396461660698,
            -19.99124070768058,
            42.614
          ],
          [
            -40.41406260563934,
            -19.99149836876184,
            42.614
          ],
          [
            -40.41412926288881,
            -19.9917781237343,
            42.614
          ],
          [
            -40.41419624969428,
            -19.99350960763708,
            42.614
          ],
          [
            -40.41422402585992,
            -19.99506000452088,
            42.614
          ],
          [
            -40.41425942772447,
            -19.99569396224195,
            42.614
          ],
          [
            -40.4142713305507,
            -19.99635656675163,
            42.614
          ],
          [
            -40.41423618989378,
            -19.99685931090119,
            42.614
          ],
          [
            -40.41413050965862,
            -19.99724217133798,
            42.614
          ],
          [
            -40.41402482110878,
            -19.99758822048842,
            42.614
          ],
          [
            -40.41395041668005,
            -19.99819348119005,
            42.614
          ],
          [
            -40.41381756384458,
            -19.99880311282537,
            42.614
          ],
          [
            -40.41374326039504,
            -19.99908059971017,
            42.614
          ],
          [
            -40.41367987863634,
            -19.99929436866611,
            42.614
          ],
          [
            -40.41364491983527,
            -19.99945880376108,
            42.614
          ],
          [
            -40.41356839572497,
            -19.99959036170206,
            42.614
          ],
          [
            -40.41349185157419,
            -19.99963353934806,
            42.614
          ],
          [
            -40.41333656525407,
            -19.99967262188594,
            42.614
          ],
          [
            -40.41315136849859,
            -19.99969358726651,
            42.614
          ],
          [
            -40.41303387721977,
            -20.00004530999363,
            42.614
          ],
          [
            -40.41287835564142,
            -20.00063894913687,
            42.614
          ],
          [
            -40.4127108060387,
            -20.00113800558387,
            42.614
          ],
          [
            -40.41256220553687,
            -20.00157471624941,
            42.614
          ],
          [
            -40.41248319499294,
            -20.00175216450137,
            42.614
          ],
          [
            -40.41243738334111,
            -20.00198170387066,
            42.614
          ],
          [
            -40.41232719278486,
            -20.0022912692898,
            42.614
          ],
          [
            -40.41225376192335,
            -20.00258474298807,
            42.614
          ],
          [
            -40.41222168196233,
            -20.00279863523627,
            42.614
          ],
          [
            -40.41218285765916,
            -20.00294038925476,
            42.614
          ],
          [
            -40.41213739399154,
            -20.00314003035046,
            42.614
          ],
          [
            -40.41206452180786,
            -20.00328367592578,
            42.614
          ],
          [
            -40.41200165403027,
            -20.00342404661659,
            42.614
          ],
          [
            -40.41196388057848,
            -20.00346707975025,
            42.614
          ],
          [
            -40.41191457894356,
            -20.00353310141583,
            42.614
          ],
          [
            -40.41179234178868,
            -20.00365400680976,
            42.614
          ],
          [
            -40.41165312886095,
            -20.00375733279836,
            42.614
          ],
          [
            -40.41154031254823,
            -20.00381969326648,
            42.614
          ],
          [
            -40.41138695313376,
            -20.00386228522263,
            42.614
          ],
          [
            -40.41123385067861,
            -20.00390753159526,
            42.614
          ],
          [
            -40.41106582549279,
            -20.00392811604453,
            42.614
          ],
          [
            -40.41054741104436,
            -20.00382338807269,
            42.614
          ],
          [
            -40.41010993281244,
            -20.00374741943492,
            42.614
          ],
          [
            -40.40981613339939,
            -20.00370841978657,
            42.614
          ],
          [
            -40.40968270718415,
            -20.00370638809821,
            42.614
          ],
          [
            -40.4095624092537,
            -20.00372696291529,
            42.614
          ],
          [
            -40.40945165572695,
            -20.00375622253467,
            42.614
          ],
          [
            -40.40927669141571,
            -20.00385902055674,
            42.614
          ],
          [
            -40.40911703764096,
            -20.00395976046564,
            42.614
          ],
          [
            -40.40899777666427,
            -20.00406645249279,
            42.614
          ],
          [
            -40.40891688062378,
            -20.00424528299279,
            42.614
          ],
          [
            -40.40886878640026,
            -20.0043830001688,
            42.614
          ],
          [
            -40.40884475348287,
            -20.00452482368101,
            42.614
          ],
          [
            -40.40886405062786,
            -20.00472324766623,
            42.614
          ],
          [
            -40.40889733092841,
            -20.00494410585598,
            42.614
          ],
          [
            -40.408938928711,
            -20.00514141210347,
            42.614
          ],
          [
            -40.40896306564357,
            -20.00553144843276,
            42.614
          ],
          [
            -40.40896089964306,
            -20.00564038226862,
            42.614
          ],
          [
            -40.40886252822163,
            -20.00594048029527,
            42.614
          ],
          [
            -40.40884006522334,
            -20.00611973413842,
            42.614
          ],
          [
            -40.40890715025369,
            -20.0062077072282,
            42.614
          ],
          [
            -40.40907769663198,
            -20.0062691040764,
            42.614
          ],
          [
            -40.40931170419832,
            -20.00631256114558,
            42.614
          ],
          [
            -40.40958261264302,
            -20.00639150531333,
            42.614
          ],
          [
            -40.41023454106777,
            -20.00665029421764,
            42.614
          ],
          [
            -40.41046754765777,
            -20.00668988799965,
            42.614
          ],
          [
            -40.41088404912026,
            -20.0066970195527,
            42.614
          ],
          [
            -40.4113695644562,
            -20.00658696355039,
            42.614
          ],
          [
            -40.41199471998975,
            -20.00631490448023,
            42.614
          ],
          [
            -40.41248628989384,
            -20.00582189423412,
            42.614
          ],
          [
            -40.41264406365543,
            -20.00559308942252,
            42.614
          ],
          [
            -40.41272481948938,
            -20.0053840358988,
            42.614
          ],
          [
            -40.41276402577962,
            -20.00514017066113,
            42.614
          ],
          [
            -40.41280892100633,
            -20.00489334465201,
            42.614
          ],
          [
            -40.41289439490912,
            -20.00442886577663,
            42.614
          ],
          [
            -40.41294837436889,
            -20.00411715426203,
            42.614
          ],
          [
            -40.4129595512746,
            -20.00386609655921,
            42.614
          ],
          [
            -40.41297569004597,
            -20.00361344997387,
            42.614
          ],
          [
            -40.41304512082889,
            -20.00320020382832,
            42.614
          ],
          [
            -40.41309533095243,
            -20.00287931853963,
            42.614
          ],
          [
            -40.41312446143034,
            -20.00239310298564,
            42.614
          ],
          [
            -40.41317962255737,
            -20.00189407573252,
            42.614
          ],
          [
            -40.41327818423951,
            -20.00129131228718,
            42.614
          ],
          [
            -40.41332423173455,
            -20.00085901121819,
            42.614
          ],
          [
            -40.41337014877873,
            -20.00041532488851,
            42.614
          ],
          [
            -40.4134358442706,
            -19.99995845620422,
            42.614
          ],
          [
            -40.41344389146293,
            -19.99975947071524,
            42.614
          ],
          [
            -40.41345791464471,
            -19.99958383033974,
            42.614
          ],
          [
            -40.41348527602264,
            -19.9993729828278,
            42.614
          ],
          [
            -40.41351332867637,
            -19.99913236447868,
            42.614
          ],
          [
            -40.4136050627169,
            -19.99886487162341,
            42.614
          ],
          [
            -40.41365830561605,
            -19.99862514628164,
            42.614
          ],
          [
            -40.41375136527863,
            -19.99840745757144,
            42.614
          ],
          [
            -40.41381232577366,
            -19.99838548741223,
            42.614
          ],
          [
            -40.41388739726354,
            -19.9983946239658,
            42.614
          ],
          [
            -40.41395473462547,
            -19.99841064662293,
            42.614
          ],
          [
            -40.41400104927865,
            -19.99845446747286,
            42.614
          ],
          [
            -40.41403625604392,
            -19.99860422521796,
            42.614
          ],
          [
            -40.41397142063447,
            -19.99881679437087,
            42.614
          ],
          [
            -40.41391488499059,
            -19.9989361436988,
            42.614
          ],
          [
            -40.41380328106367,
            -19.99915811693121,
            42.614
          ],
          [
            -40.41365040044493,
            -19.99962607005154,
            42.614
          ],
          [
            -40.41355369431588,
            -19.99990108388953,
            42.614
          ],
          [
            -40.41352474193042,
            -20.00008977353459,
            42.614
          ],
          [
            -40.4134427482947,
            -20.00040661284826,
            42.614
          ],
          [
            -40.41284179919637,
            -20.00525100199513,
            42.614
          ],
          [
            -40.41268324889138,
            -20.00567913728161,
            42.614
          ],
          [
            -40.41247585344652,
            -20.00596967771673,
            42.614
          ],
          [
            -40.41222776837638,
            -20.00621435822124,
            42.614
          ],
          [
            -40.4120406776134,
            -20.00635582301655,
            42.614
          ],
          [
            -40.41155448931398,
            -20.00659787157495,
            42.614
          ],
          [
            -40.41104197946542,
            -20.00677761755911,
            42.614
          ],
          [
            -40.41016336975708,
            -20.00700329792131,
            42.614
          ],
          [
            -40.40875088873393,
            -20.00741636334493,
            42.614
          ],
          [
            -40.40839886970902,
            -20.00756443167739,
            42.614
          ],
          [
            -40.40813855934837,
            -20.00773648174628,
            42.614
          ],
          [
            -40.40772369861978,
            -20.00806909711493,
            42.614
          ],
          [
            -40.40749187246443,
            -20.00830612322849,
            42.614
          ],
          [
            -40.40741054092792,
            -20.0084513875036,
            42.614
          ],
          [
            -40.4071258930316,
            -20.00901262871947,
            42.614
          ],
          [
            -40.40699986118931,
            -20.00942164298706,
            42.614
          ],
          [
            -40.4067600415695,
            -20.01046057765971,
            42.614
          ],
          [
            -40.40650460481954,
            -20.01125955486036,
            42.614
          ],
          [
            -40.40635822865791,
            -20.01165328132679,
            42.614
          ],
          [
            -40.40615897370438,
            -20.01208523982834,
            42.614
          ],
          [
            -40.40579702452636,
            -20.01269305498315,
            42.614
          ],
          [
            -40.40532817779492,
            -20.01335301890603,
            42.614
          ],
          [
            -40.40500358788664,
            -20.01384448761519,
            42.614
          ],
          [
            -40.40479209712773,
            -20.01411972902939,
            42.614
          ],
          [
            -40.40456841631679,
            -20.01448670941394,
            42.614
          ],
          [
            -40.40432075538156,
            -20.01499746693505,
            42.614
          ],
          [
            -40.40417163277764,
            -20.01559191751585,
            42.614
          ],
          [
            -40.40341187362942,
            -20.01847876421436,
            42.614
          ],
          [
            -40.40282786075705,
            -20.02039180399502,
            42.614
          ],
          [
            -40.40253266068614,
            -20.02105892255481,
            42.614
          ],
          [
            -40.40198615751749,
            -20.02191498854684,
            42.614
          ],
          [
            -40.40002688985887,
            -20.02398324591352,
            42.614
          ],
          [
            -40.3990830401461,
            -20.02500678267725,
            42.614
          ],
          [
            -40.39869950245768,
            -20.02560896765727,
            42.614
          ],
          [
            -40.39823950065431,
            -20.02680556046273,
            42.614
          ],
          [
            -40.3980508745458,
            -20.02802433965672,
            42.614
          ],
          [
            -40.39791407274143,
            -20.02907728013879,
            42.614
          ],
          [
            -40.39787525336925,
            -20.02964536322658,
            42.614
          ],
          [
            -40.3978306945555,
            -20.02983760236592,
            42.614
          ],
          [
            -40.39777601795472,
            -20.03007394300378,
            42.614
          ],
          [
            -40.39769822685486,
            -20.03036028596219,
            42.614
          ],
          [
            -40.39767886825323,
            -20.0306713874627,
            42.614
          ],
          [
            -40.39762684819591,
            -20.03091530953583,
            42.614
          ],
          [
            -40.39751601231294,
            -20.03124199439809,
            42.614
          ],
          [
            -40.39745507702325,
            -20.03153378652019,
            42.614
          ],
          [
            -40.39719300165645,
            -20.03203608554921,
            42.614
          ],
          [
            -40.39690029520324,
            -20.03256646882305,
            42.614
          ],
          [
            -40.39646056594177,
            -20.03314917938322,
            42.614
          ],
          [
            -40.39562181991675,
            -20.03385448514631,
            42.614
          ],
          [
            -40.39518174489625,
            -20.03429167533052,
            42.614
          ],
          [
            -40.39497476301154,
            -20.03454045352836,
            42.614
          ],
          [
            -40.39447873821858,
            -20.03517930718676,
            42.614
          ],
          [
            -40.39413788370599,
            -20.03560164657406,
            42.614
          ],
          [
            -40.39374088178379,
            -20.03618025727234,
            42.614
          ],
          [
            -40.39355821859095,
            -20.03644853373062,
            42.614
          ],
          [
            -40.39345610925042,
            -20.03661711996753,
            42.614
          ],
          [
            -40.39334514455317,
            -20.03684186357685,
            42.614
          ],
          [
            -40.3932326656979,
            -20.03709407932949,
            42.614
          ],
          [
            -40.3931320894964,
            -20.03735487426759,
            42.614
          ],
          [
            -40.39304976949921,
            -20.03759934235125,
            42.614
          ],
          [
            -40.39298933137066,
            -20.03782266552951,
            42.614
          ],
          [
            -40.39293148732884,
            -20.03809642425458,
            42.614
          ],
          [
            -40.39287944887128,
            -20.03847392310451,
            42.614
          ],
          [
            -40.39285094962645,
            -20.03886731070407,
            42.614
          ],
          [
            -40.39277132849953,
            -20.03970497425274,
            42.614
          ],
          [
            -40.39272537479722,
            -20.04030860828543,
            42.614
          ],
          [
            -40.39267337860331,
            -20.04054461919959,
            42.614
          ],
          [
            -40.3925957041701,
            -20.04088324784363,
            42.614
          ],
          [
            -40.39247096246821,
            -20.04124276594712,
            42.614
          ],
          [
            -40.39235817589191,
            -20.04147672412601,
            42.614
          ],
          [
            -40.39227834634715,
            -20.04166134156302,
            42.614
          ],
          [
            -40.39219910226668,
            -20.04182133270682,
            42.614
          ],
          [
            -40.3920323985969,
            -20.04208833331509,
            42.614
          ],
          [
            -40.39183964920701,
            -20.0423693863695,
            42.614
          ],
          [
            -40.39166445282626,
            -20.0425708712433,
            42.614
          ],
          [
            -40.39149317720681,
            -20.04276055963879,
            42.614
          ],
          [
            -40.39141930842758,
            -20.04282333213198,
            42.614
          ],
          [
            -40.39121628446053,
            -20.0430047747916,
            42.614
          ],
          [
            -40.39097510307122,
            -20.0432048660077,
            42.614
          ],
          [
            -40.39070862988928,
            -20.04341380129947,
            42.614
          ],
          [
            -40.39046549808315,
            -20.04361045519836,
            42.614
          ],
          [
            -40.39003087608068,
            -20.04394396429279,
            42.614
          ],
          [
            -40.38947981205929,
            -20.04439500724282,
            42.614
          ],
          [
            -40.38920814378073,
            -20.04461748015275,
            42.614
          ],
          [
            -40.38894152535038,
            -20.04486899686567,
            42.614
          ],
          [
            -40.38874066245082,
            -20.04506156549502,
            42.614
          ],
          [
            -40.38847599075289,
            -20.04538785831188,
            42.614
          ],
          [
            -40.38830550026611,
            -20.04561057071607,
            42.614
          ],
          [
            -40.38814566909641,
            -20.04585554110194,
            42.614
          ],
          [
            -40.38800328661318,
            -20.04609137805114,
            42.614
          ],
          [
            -40.38787514774766,
            -20.04632536175133,
            42.614
          ],
          [
            -40.38770020799437,
            -20.04662703389416,
            42.614
          ],
          [
            -40.3874152445373,
            -20.04710009044293,
            42.614
          ],
          [
            -40.38708405237125,
            -20.04766107861702,
            42.614
          ],
          [
            -40.38689555393595,
            -20.04798805728261,
            42.614
          ],
          [
            -40.3866192528453,
            -20.04846951334922,
            42.614
          ],
          [
            -40.38635241055786,
            -20.04891535696013,
            42.614
          ],
          [
            -40.386193805067,
            -20.04919383789226,
            42.614
          ],
          [
            -40.38586717492149,
            -20.04974081651208,
            42.614
          ],
          [
            -40.38543053840217,
            -20.05049811058701,
            42.614
          ],
          [
            -40.38514123257661,
            -20.05098989539924,
            42.614
          ],
          [
            -40.38482637194451,
            -20.05155845499347,
            42.614
          ],
          [
            -40.38453744404745,
            -20.05204683485135,
            42.614
          ],
          [
            -40.38405720629195,
            -20.05280577584826,
            42.614
          ],
          [
            -40.38387575145928,
            -20.05303558475185,
            42.614
          ],
          [
            -40.38369393746005,
            -20.05322983578648,
            42.614
          ],
          [
            -40.38349107447883,
            -20.05342703681944,
            42.614
          ],
          [
            -40.38305527343498,
            -20.05382389824773,
            42.614
          ],
          [
            -40.38269758607334,
            -20.05407414827415,
            42.614
          ],
          [
            -40.38243455214735,
            -20.05423520554264,
            42.614
          ],
          [
            -40.38162458364933,
            -20.05472410142374,
            42.614
          ],
          [
            -40.38129048358322,
            -20.05499147192552,
            42.614
          ],
          [
            -40.38104605396872,
            -20.05519677444196,
            42.614
          ],
          [
            -40.38076564817244,
            -20.05547422181363,
            42.614
          ],
          [
            -40.38059478501172,
            -20.05564121609673,
            42.614
          ],
          [
            -40.38033395401207,
            -20.05601500716609,
            42.614
          ],
          [
            -40.38001544672838,
            -20.05652310546724,
            42.614
          ],
          [
            -40.37974425912904,
            -20.05693579962433,
            42.614
          ],
          [
            -40.37928848283355,
            -20.05766433187242,
            42.614
          ],
          [
            -40.3788700143741,
            -20.05831960851822,
            42.614
          ],
          [
            -40.37841223465062,
            -20.05904022080378,
            42.614
          ],
          [
            -40.37809286514227,
            -20.0595377949602,
            42.614
          ],
          [
            -40.37764879530888,
            -20.06019663270584,
            42.614
          ],
          [
            -40.37744657784987,
            -20.06052807476554,
            42.614
          ],
          [
            -40.37729924166338,
            -20.06078016322519,
            42.614
          ],
          [
            -40.37718035910079,
            -20.06102004426471,
            42.614
          ],
          [
            -40.37708579752048,
            -20.0612280314411,
            42.614
          ],
          [
            -40.37697898166697,
            -20.06152093371289,
            42.614
          ],
          [
            -40.37689339233516,
            -20.06179883392188,
            42.614
          ],
          [
            -40.37675389916354,
            -20.06232264473749,
            42.614
          ],
          [
            -40.3765395069207,
            -20.06303229055708,
            42.614
          ],
          [
            -40.37643065288444,
            -20.06340510982803,
            42.614
          ],
          [
            -40.37623673339687,
            -20.06408033082577,
            42.614
          ],
          [
            -40.37601325992664,
            -20.06487792002087,
            42.614
          ],
          [
            -40.37584117864899,
            -20.06546210438926,
            42.614
          ],
          [
            -40.37576922737793,
            -20.06570020678692,
            42.614
          ],
          [
            -40.37570395826572,
            -20.06584281067714,
            42.614
          ],
          [
            -40.37562708696827,
            -20.06600256083251,
            42.614
          ],
          [
            -40.37550711169489,
            -20.06619110214242,
            42.614
          ],
          [
            -40.3753820952056,
            -20.06634803294302,
            42.614
          ],
          [
            -40.37523226790688,
            -20.06649822450128,
            42.614
          ],
          [
            -40.37506922989739,
            -20.06663617546306,
            42.614
          ],
          [
            -40.37487365186509,
            -20.06676265234544,
            42.614
          ],
          [
            -40.3746356075518,
            -20.06686928896233,
            42.614
          ],
          [
            -40.37439124783918,
            -20.06695377552191,
            42.614
          ],
          [
            -40.37414557438549,
            -20.06702198022254,
            42.614
          ],
          [
            -40.37343540169196,
            -20.06715634939826,
            42.614
          ],
          [
            -40.37194247560557,
            -20.06738418698393,
            42.614
          ],
          [
            -40.37057209870472,
            -20.06760664504923,
            42.614
          ],
          [
            -40.36973552012319,
            -20.06772641065901,
            42.614
          ],
          [
            -40.36914679167919,
            -20.0679515256417,
            42.614
          ],
          [
            -40.36832422704349,
            -20.06818628932989,
            42.614
          ],
          [
            -40.36699275231209,
            -20.06844458313039,
            42.614
          ],
          [
            -40.36641591309169,
            -20.06881156511203,
            42.614
          ],
          [
            -40.36607979114205,
            -20.06911151554936,
            42.614
          ],
          [
            -40.36575743734627,
            -20.06933352232587,
            42.614
          ],
          [
            -40.3653334288943,
            -20.06949356834408,
            42.614
          ],
          [
            -40.36473186811536,
            -20.06957664331433,
            42.614
          ],
          [
            -40.36417745809921,
            -20.06945758342297,
            42.614
          ],
          [
            -40.3635382958342,
            -20.06911241176949,
            42.614
          ],
          [
            -40.36296176871528,
            -20.0689200080207,
            42.614
          ],
          [
            -40.36264362594191,
            -20.06886465213438,
            42.614
          ],
          [
            -40.36230077059956,
            -20.0688791963702,
            42.614
          ],
          [
            -40.36159603237573,
            -20.06899359893419,
            42.614
          ],
          [
            -40.36099228511225,
            -20.06912972071638,
            42.614
          ],
          [
            -40.36044238039083,
            -20.0692885183203,
            42.614
          ],
          [
            -40.35987101506647,
            -20.06947580740134,
            42.614
          ],
          [
            -40.3593091699436,
            -20.06970830793218,
            42.614
          ],
          [
            -40.35898103530712,
            -20.06984704875657,
            42.614
          ],
          [
            -40.35851512937675,
            -20.07007828036401,
            42.614
          ],
          [
            -40.35791380264596,
            -20.07037872565397,
            42.614
          ],
          [
            -40.35737530754737,
            -20.07067113778372,
            42.614
          ],
          [
            -40.35703268463474,
            -20.07088801980939,
            42.614
          ],
          [
            -40.35667827375274,
            -20.07113453692429,
            42.614
          ],
          [
            -40.35641601695305,
            -20.07132439870059,
            42.614
          ],
          [
            -40.35604459144918,
            -20.07163047889692,
            42.614
          ],
          [
            -40.35538074201837,
            -20.07219877680657,
            42.614
          ],
          [
            -40.35480242714024,
            -20.07267661530614,
            42.614
          ],
          [
            -40.35427855114348,
            -20.07310843325002,
            42.614
          ],
          [
            -40.35375068327615,
            -20.07354606104241,
            42.614
          ],
          [
            -40.3534640540135,
            -20.07377710042735,
            42.614
          ],
          [
            -40.35323270627984,
            -20.07400097702109,
            42.614
          ],
          [
            -40.35302543983414,
            -20.07419343456838,
            42.614
          ],
          [
            -40.35281873305371,
            -20.0744140138558,
            42.614
          ],
          [
            -40.35264057037327,
            -20.07461448466928,
            42.614
          ],
          [
            -40.3524359145293,
            -20.07489887874207,
            42.614
          ],
          [
            -40.35226909578816,
            -20.07515167436185,
            42.614
          ],
          [
            -40.35215050629858,
            -20.07536754878615,
            42.614
          ],
          [
            -40.35203051990678,
            -20.07561375065729,
            42.614
          ],
          [
            -40.3519166184902,
            -20.07588908218964,
            42.614
          ],
          [
            -40.35184960796499,
            -20.07609489691963,
            42.614
          ],
          [
            -40.35179205435416,
            -20.07628160628484,
            42.614
          ],
          [
            -40.35171592954654,
            -20.07658196720346,
            42.614
          ],
          [
            -40.35164641756715,
            -20.07694130807903,
            42.614
          ],
          [
            -40.35158915021876,
            -20.07730194089182,
            42.614
          ],
          [
            -40.35154188371801,
            -20.07785877876893,
            42.614
          ],
          [
            -40.35146477146558,
            -20.07848054815801,
            42.614
          ],
          [
            -40.35142214206454,
            -20.07893411261011,
            42.614
          ],
          [
            -40.35137710728063,
            -20.07920532314046,
            42.614
          ],
          [
            -40.3513385701473,
            -20.07940902577176,
            42.614
          ],
          [
            -40.35126372755234,
            -20.07964359029505,
            42.614
          ],
          [
            -40.35115578243237,
            -20.07989926644897,
            42.614
          ],
          [
            -40.35092736155913,
            -20.08027937459195,
            42.614
          ],
          [
            -40.35072832982331,
            -20.08052430869545,
            42.614
          ],
          [
            -40.35044036485367,
            -20.08080554282709,
            42.614
          ],
          [
            -40.35009312325725,
            -20.08107294294789,
            42.614
          ],
          [
            -40.34973060083642,
            -20.08128250714389,
            42.614
          ],
          [
            -40.34938740930126,
            -20.081433902652,
            42.614
          ],
          [
            -40.34875280828232,
            -20.08163755342813,
            42.614
          ],
          [
            -40.34825132788807,
            -20.08181776478666,
            42.614
          ],
          [
            -40.34792791060571,
            -20.08195465120468,
            42.614
          ],
          [
            -40.34768105042214,
            -20.08207400806591,
            42.614
          ],
          [
            -40.34738432855168,
            -20.08223761363947,
            42.614
          ],
          [
            -40.34709421147321,
            -20.08241790144953,
            42.614
          ],
          [
            -40.3468087826829,
            -20.08263482997987,
            42.614
          ],
          [
            -40.34651710404849,
            -20.08286297913313,
            42.614
          ],
          [
            -40.34628159126051,
            -20.08307250142496,
            42.614
          ],
          [
            -40.34608676171213,
            -20.08328125325318,
            42.614
          ],
          [
            -40.34589720116357,
            -20.0834820259889,
            42.614
          ],
          [
            -40.34566756770359,
            -20.08375224936588,
            42.614
          ],
          [
            -40.34553170325878,
            -20.08395543835793,
            42.614
          ],
          [
            -40.3454285206393,
            -20.0841217755677,
            42.614
          ],
          [
            -40.34532320537346,
            -20.08429206907261,
            42.614
          ],
          [
            -40.3451711553352,
            -20.08458667698403,
            42.614
          ],
          [
            -40.3448775561009,
            -20.08519917858608,
            42.614
          ],
          [
            -40.3446148848362,
            -20.08575571466451,
            42.614
          ],
          [
            -40.34433629924083,
            -20.08634892782225,
            42.614
          ],
          [
            -40.34391079800702,
            -20.08720215225527,
            42.614
          ],
          [
            -40.34353434630773,
            -20.08799746329191,
            42.614
          ],
          [
            -40.34302557009841,
            -20.08906024650715,
            42.614
          ],
          [
            -40.34260755235268,
            -20.08991577625426,
            42.614
          ],
          [
            -40.34205425623456,
            -20.09109212425661,
            42.614
          ],
          [
            -40.34154317631884,
            -20.09213655142037,
            42.614
          ],
          [
            -40.34112483845245,
            -20.09300916983481,
            42.614
          ],
          [
            -40.34009871775622,
            -20.09510226437718,
            42.614
          ],
          [
            -40.33929464772528,
            -20.09688806369077,
            42.614
          ],
          [
            -40.33823185925819,
            -20.09857318867912,
            42.614
          ],
          [
            -40.33665030268358,
            -20.10050555924078,
            42.614
          ],
          [
            -40.33407834636377,
            -20.1032459485318,
            42.614
          ],
          [
            -40.33306831128994,
            -20.10430808594598,
            42.614
          ],
          [
            -40.33267591313798,
            -20.10485640248075,
            42.614
          ],
          [
            -40.33182615969434,
            -20.10575850128367,
            42.614
          ],
          [
            -40.33150128215404,
            -20.10608919184131,
            42.614
          ],
          [
            -40.33115908451334,
            -20.10638957412166,
            42.614
          ],
          [
            -40.33088460918405,
            -20.10658353631451,
            42.614
          ],
          [
            -40.33053256911473,
            -20.10683741097828,
            42.614
          ],
          [
            -40.32998361995985,
            -20.10740997525926,
            42.614
          ],
          [
            -40.32933756214229,
            -20.10807613679494,
            42.614
          ],
          [
            -40.32841658870328,
            -20.10902814351605,
            42.614
          ],
          [
            -40.32764112743273,
            -20.10980565241892,
            42.614
          ],
          [
            -40.32712507729091,
            -20.1103428599458,
            42.614
          ],
          [
            -40.32663055498415,
            -20.11085437272162,
            42.614
          ],
          [
            -40.32620798464744,
            -20.111261630675,
            42.614
          ],
          [
            -40.32586586883132,
            -20.11154718571046,
            42.614
          ],
          [
            -40.32539048731597,
            -20.11188199067724,
            42.614
          ],
          [
            -40.3250547781749,
            -20.11208231301978,
            42.614
          ],
          [
            -40.32473354638763,
            -20.11225286700314,
            42.614
          ],
          [
            -40.32416918506414,
            -20.11254691600004,
            42.614
          ],
          [
            -40.32335010117276,
            -20.11295586166334,
            42.614
          ],
          [
            -40.32284571587372,
            -20.1132193767809,
            42.614
          ],
          [
            -40.32237653509388,
            -20.11344651851795,
            42.614
          ],
          [
            -40.32191573493383,
            -20.11367170150578,
            42.614
          ],
          [
            -40.32137880228161,
            -20.11393455954004,
            42.614
          ],
          [
            -40.3208691327431,
            -20.11419418908116,
            42.614
          ],
          [
            -40.32021104577863,
            -20.11452564273698,
            42.614
          ],
          [
            -40.3196938797617,
            -20.11480072207615,
            42.614
          ],
          [
            -40.31931995705257,
            -20.11499299756188,
            42.614
          ],
          [
            -40.31883565862376,
            -20.11522590408404,
            42.614
          ],
          [
            -40.31839915052561,
            -20.11543597609561,
            42.614
          ],
          [
            -40.3178679635128,
            -20.11570797698831,
            42.614
          ],
          [
            -40.31729809308656,
            -20.11598875199343,
            42.614
          ],
          [
            -40.31661974830715,
            -20.11633459872466,
            42.614
          ],
          [
            -40.31574593098694,
            -20.11678404620721,
            42.614
          ],
          [
            -40.31478255688532,
            -20.11740297298361,
            42.614
          ],
          [
            -40.31437905496667,
            -20.11771816169597,
            42.614
          ],
          [
            -40.31348772925875,
            -20.1181551134142,
            42.614
          ],
          [
            -40.31304345152853,
            -20.11837290748993,
            42.614
          ],
          [
            -40.31257496612173,
            -20.11846554215507,
            42.614
          ],
          [
            -40.31233459295823,
            -20.11850585630429,
            42.614
          ],
          [
            -40.30954448047191,
            -20.11991681138123,
            42.614
          ],
          [
            -40.30839189535681,
            -20.12061143177483,
            42.614
          ],
          [
            -40.30716899628981,
            -20.12152863427097,
            42.614
          ],
          [
            -40.30558703474537,
            -20.12299775894822,
            42.614
          ],
          [
            -40.30560064658604,
            -20.12312691482728,
            42.614
          ],
          [
            -40.30564846877387,
            -20.12326371291742,
            42.614
          ],
          [
            -40.30686472968862,
            -20.12444465236138,
            42.614
          ],
          [
            -40.30807535543272,
            -20.1281184653669,
            42.614
          ],
          [
            -40.30807533355952,
            -20.12829008980999,
            42.614
          ],
          [
            -40.30795833051849,
            -20.12843424111697,
            42.614
          ],
          [
            -40.30792461589751,
            -20.1285515274215,
            42.614
          ],
          [
            -40.30805382266492,
            -20.12874068502806,
            42.614
          ],
          [
            -40.30802589020572,
            -20.12913343444595,
            42.614
          ],
          [
            -40.30798899451194,
            -20.12928380038955,
            42.614
          ],
          [
            -40.30785121970229,
            -20.12940227388694,
            42.614
          ],
          [
            -40.30772260277063,
            -20.12939363096713,
            42.614
          ],
          [
            -40.30756673922554,
            -20.12934051979806,
            42.614
          ]
        ]
      },
      "properties": {
        "data_versao": "07_12_2025",
        "tipo_linha": "Fundao",
        "codigo_linha": "888",
        "itinerario": "888I",
        "terminal_origem": "TLA",
        "terminal_destino": "não integrada"
      }
    },
    {
      "type": "Feature",
      "geometry": {
        "type": "LineString",
        "coordinates": [
          [
            -40.30754138357182,
            -20.12932794227211,
            44.962
          ],
          [
            -40.30674328689518,
            -20.12918090008035,
            44.962
          ],
          [
            -40.30545417439615,
            -20.12909308536134,
            44.962
          ],
          [
            -40.305379091623,
            -20.1290460433848,
            44.962
          ],
          [
            -40.30541979921779,
            -20.12899023389776,
            44.962
          ],
          [
            -40.30549179762709,
            -20.12894031359992,
            44.962
          ],
          [
            -40.30607807762791,
            -20.12877908073671,
            44.962
          ],
          [
            -40.30717725795451,
            -20.12830695697032,
            44.962
          ],
          [
            -40.30785643791766,
            -20.12801868264656,
            44.962
          ],
          [
            -40.30792350901493,
            -20.12795572286695,
            44.962
          ],
          [
            -40.30777938467282,
            -20.12748489873187,
            44.962
          ],
          [
            -40.30747437261017,
            -20.12655928252705,
            44.962
          ],
          [
            -40.30704869014152,
            -20.12535390072845,
            44.962
          ],
          [
            -40.30679395753153,
            -20.12461167200945,
            44.962
          ],
          [
            -40.30670298038795,
            -20.12454554605617,
            44.962
          ],
          [
            -40.30656216015894,
            -20.12448571032871,
            44.962
          ],
          [
            -40.30605988782061,
            -20.12440379133296,
            44.962
          ],
          [
            -40.30587212716432,
            -20.12432820709719,
            44.962
          ],
          [
            -40.30516812812784,
            -20.12397690594469,
            44.962
          ],
          [
            -40.30503068876381,
            -20.12373131634593,
            44.962
          ],
          [
            -40.30495357819037,
            -20.12366519052376,
            44.962
          ],
          [
            -40.30493347617554,
            -20.12356352287208,
            44.962
          ],
          [
            -40.30498043483953,
            -20.12345333690081,
            44.962
          ],
          [
            -40.30542644106563,
            -20.12308818616043,
            44.962
          ],
          [
            -40.3054432197953,
            -20.12299373752458,
            44.962
          ],
          [
            -40.30538622783487,
            -20.12292761464239,
            44.962
          ],
          [
            -40.30523536241182,
            -20.12278277019787,
            44.962
          ],
          [
            -40.30524543011226,
            -20.12272295238101,
            44.962
          ],
          [
            -40.30530601089006,
            -20.12264094982576,
            44.962
          ],
          [
            -40.30615600271094,
            -20.12196039282607,
            44.962
          ],
          [
            -40.30674097928525,
            -20.121608392929,
            44.962
          ],
          [
            -40.30727595288273,
            -20.12133149045876,
            44.962
          ],
          [
            -40.30817465511868,
            -20.12069745568409,
            44.962
          ],
          [
            -40.30911246010457,
            -20.12010010772731,
            44.962
          ],
          [
            -40.30972933472943,
            -20.11978202952633,
            44.962
          ],
          [
            -40.3104684033183,
            -20.1194193066338,
            44.962
          ],
          [
            -40.31167433389475,
            -20.11880140089378,
            44.962
          ],
          [
            -40.3124832880763,
            -20.11834402440846,
            44.962
          ],
          [
            -40.31268146858885,
            -20.11817670007036,
            73.67822
          ],
          [
            -40.3130867514562,
            -20.11796269921523,
            73.67822
          ],
          [
            -40.31425593666105,
            -20.11739604712297,
            73.67822
          ],
          [
            -40.31467184841024,
            -20.11704803757496,
            73.67822
          ],
          [
            -40.31523355697304,
            -20.11705711470727,
            73.67822
          ],
          [
            -40.31608122077758,
            -20.11657396792484,
            73.67822
          ],
          [
            -40.31870194272693,
            -20.11525045278286,
            73.67822
          ],
          [
            -40.3199571673871,
            -20.11462302944063,
            73.67822
          ],
          [
            -40.32121447790826,
            -20.1139811364015,
            73.67822
          ],
          [
            -40.32189510262745,
            -20.1136420714603,
            73.67822
          ],
          [
            -40.32255378187221,
            -20.11333192846989,
            73.67822
          ],
          [
            -40.32302107143457,
            -20.11309029481508,
            73.67822
          ],
          [
            -40.32372910844232,
            -20.11272269022903,
            73.67822
          ],
          [
            -40.32432690743485,
            -20.11242512073489,
            73.67822
          ],
          [
            -40.32478941591218,
            -20.1121904913031,
            73.67822
          ],
          [
            -40.32514533136452,
            -20.11199278290776,
            73.67822
          ],
          [
            -40.32544523676816,
            -20.11180961105591,
            73.67822
          ],
          [
            -40.32566066009809,
            -20.11166673927654,
            73.67822
          ],
          [
            -40.3259529087408,
            -20.1114428493219,
            73.67822
          ],
          [
            -40.32614498646497,
            -20.11127427971384,
            73.67822
          ],
          [
            -40.32629144807216,
            -20.11114491332675,
            73.67822
          ],
          [
            -40.32660165575221,
            -20.11083735995047,
            73.67822
          ],
          [
            -40.3271221497926,
            -20.11030417041402,
            73.67822
          ],
          [
            -40.32750621092092,
            -20.10991218344888,
            73.67822
          ],
          [
            -40.32796695923107,
            -20.10942552174831,
            73.67822
          ],
          [
            -40.3286562723432,
            -20.10873170974562,
            73.67822
          ],
          [
            -40.32937233985551,
            -20.10799317993002,
            73.67822
          ],
          [
            -40.3300015589013,
            -20.1073388944695,
            73.67822
          ],
          [
            -40.33076208306542,
            -20.10656282841861,
            73.67822
          ],
          [
            -40.33153186234097,
            -20.10579085827457,
            73.67822
          ],
          [
            -40.33262369106721,
            -20.10463889164486,
            73.67822
          ],
          [
            -40.33267121549935,
            -20.10464636473315,
            73.67822
          ],
          [
            -40.33616372353532,
            -20.10085859091346,
            73.67822
          ],
          [
            -40.33755415920718,
            -20.09928263046322,
            73.67822
          ],
          [
            -40.33878161716515,
            -20.09751244169691,
            73.67822
          ],
          [
            -40.3404628961001,
            -20.0941844644535,
            73.67822
          ],
          [
            -40.34063272033262,
            -20.09381532399796,
            73.67822
          ],
          [
            -40.34089726638685,
            -20.09321263084968,
            73.67822
          ],
          [
            -40.34130122803077,
            -20.09252106636602,
            73.67822
          ],
          [
            -40.34163677599553,
            -20.09187741037931,
            73.67822
          ],
          [
            -40.34191331368338,
            -20.09128944957586,
            73.67822
          ],
          [
            -40.3422238416618,
            -20.0906592938905,
            73.67822
          ],
          [
            -40.34275044734096,
            -20.08955415888443,
            73.67822
          ],
          [
            -40.34309145910119,
            -20.08887005815088,
            73.67822
          ],
          [
            -40.34356737278233,
            -20.08785872187601,
            73.67822
          ],
          [
            -40.34392131549279,
            -20.08712167052132,
            73.67822
          ],
          [
            -40.34419803402115,
            -20.08657460789605,
            73.67822
          ],
          [
            -40.34458694535248,
            -20.08576131255468,
            73.67822
          ],
          [
            -40.34475742560172,
            -20.08541239226582,
            73.67822
          ],
          [
            -40.34509973170924,
            -20.08469661980652,
            73.67822
          ],
          [
            -40.34524013202954,
            -20.08439780502813,
            73.67822
          ],
          [
            -40.34537615402138,
            -20.08415548584744,
            73.67822
          ],
          [
            -40.34558713107651,
            -20.0838183634112,
            73.67822
          ],
          [
            -40.34588289811458,
            -20.08344730811276,
            73.67822
          ],
          [
            -40.34614975324055,
            -20.08316556523306,
            73.67822
          ],
          [
            -40.34642978350092,
            -20.08290148857749,
            73.67822
          ],
          [
            -40.34694109650071,
            -20.08250189072152,
            73.67822
          ],
          [
            -40.34716137873031,
            -20.08234829767277,
            73.67822
          ],
          [
            -40.34760342019993,
            -20.08208463113017,
            73.67822
          ],
          [
            -40.34799089019327,
            -20.0818898111485,
            73.67822
          ],
          [
            -40.34837511665111,
            -20.08173799676533,
            73.67822
          ],
          [
            -40.34893971605923,
            -20.08153889138271,
            73.67822
          ],
          [
            -40.34926447834511,
            -20.08142684719951,
            73.67822
          ],
          [
            -40.34954557417132,
            -20.08131574826021,
            73.67822
          ],
          [
            -40.34987934708035,
            -20.0811677135766,
            73.67822
          ],
          [
            -40.35023115709222,
            -20.08093184141335,
            73.67822
          ],
          [
            -40.35054585622633,
            -20.0806573359122,
            73.67822
          ],
          [
            -40.35077806341822,
            -20.08039631083031,
            73.67822
          ],
          [
            -40.35102650560602,
            -20.08002775024,
            73.67822
          ],
          [
            -40.35116333326158,
            -20.07974273773219,
            73.67822
          ],
          [
            -40.35128549743252,
            -20.07939369415722,
            73.67822
          ],
          [
            -40.35137187220641,
            -20.07896822143093,
            73.67822
          ],
          [
            -40.35139244047118,
            -20.0787175446863,
            73.67822
          ],
          [
            -40.35150490980973,
            -20.07780229187156,
            73.67822
          ],
          [
            -40.35156119904796,
            -20.07723454787348,
            73.67822
          ],
          [
            -40.35163567193811,
            -20.07677251762918,
            73.67822
          ],
          [
            -40.35170502877958,
            -20.07644981961418,
            73.67822
          ],
          [
            -40.35180260742058,
            -20.07605973871459,
            73.67822
          ],
          [
            -40.35200852736608,
            -20.07553293980257,
            73.67822
          ],
          [
            -40.35217927976462,
            -20.07520106237022,
            73.67822
          ],
          [
            -40.35235465140811,
            -20.07491347733626,
            73.67822
          ],
          [
            -40.3525189826065,
            -20.07469287434984,
            73.67822
          ],
          [
            -40.35273437970326,
            -20.07442129102,
            73.67822
          ],
          [
            -40.35301908299889,
            -20.07411569570807,
            73.67822
          ],
          [
            -40.35342485503216,
            -20.07374014949462,
            73.67822
          ],
          [
            -40.35398142168303,
            -20.07330159962492,
            73.67822
          ],
          [
            -40.35460694346497,
            -20.07279065406724,
            73.67822
          ],
          [
            -40.35558077288115,
            -20.07198576026415,
            73.67822
          ],
          [
            -40.35630144446041,
            -20.07137992767325,
            73.67822
          ],
          [
            -40.35675153329544,
            -20.07103618360518,
            73.67822
          ],
          [
            -40.35735504145542,
            -20.07064947180889,
            73.67822
          ],
          [
            -40.3579725312779,
            -20.07031115560838,
            73.67822
          ],
          [
            -40.35847602535671,
            -20.07005708794018,
            73.67822
          ],
          [
            -40.35927844002146,
            -20.06968288455889,
            73.67822
          ],
          [
            -40.36000898740763,
            -20.06939777964256,
            73.67822
          ],
          [
            -40.36050357682483,
            -20.06923686008785,
            73.67822
          ],
          [
            -40.36113771154742,
            -20.06905800505552,
            73.67822
          ],
          [
            -40.36148201960332,
            -20.06898509026495,
            73.67822
          ],
          [
            -40.36205018348527,
            -20.06887948210242,
            73.67822
          ],
          [
            -40.36274260081765,
            -20.06877731597409,
            73.67822
          ],
          [
            -40.36363315720757,
            -20.06865012904239,
            73.67822
          ],
          [
            -40.36505000074705,
            -20.06842855767092,
            73.67822
          ],
          [
            -40.36677661643091,
            -20.06816051755082,
            73.67822
          ],
          [
            -40.36753130831436,
            -20.06803337165738,
            73.67822
          ],
          [
            -40.36900957325589,
            -20.06779856068011,
            73.67822
          ],
          [
            -40.36953370663346,
            -20.06771759890262,
            73.67822
          ],
          [
            -40.3705825543672,
            -20.06754369070703,
            73.67822
          ],
          [
            -40.3713319694278,
            -20.06742732156377,
            73.67822
          ],
          [
            -40.37178834536639,
            -20.06735523556313,
            73.67822
          ],
          [
            -40.37277799443483,
            -20.06719806735625,
            73.67822
          ],
          [
            -40.37371605394606,
            -20.06705531480113,
            73.67822
          ],
          [
            -40.3741797551757,
            -20.06696583299761,
            73.67822
          ],
          [
            -40.37446541210922,
            -20.0668738762858,
            73.67822
          ],
          [
            -40.37482231756858,
            -20.06670538153428,
            73.67822
          ],
          [
            -40.37509309381368,
            -20.06652285639106,
            73.67822
          ],
          [
            -40.37531690506638,
            -20.06629474776441,
            73.67822
          ],
          [
            -40.37548805242564,
            -20.06608960052159,
            73.67822
          ],
          [
            -40.37563500324134,
            -20.06582090878383,
            73.67822
          ],
          [
            -40.37574267562998,
            -20.06551832451786,
            73.67822
          ],
          [
            -40.37588120941085,
            -20.06509901772143,
            73.67822
          ],
          [
            -40.37615062619221,
            -20.06411853345762,
            73.67822
          ],
          [
            -40.37649687277011,
            -20.06292459493247,
            73.67822
          ],
          [
            -40.37687294956888,
            -20.06161716873706,
            73.67822
          ],
          [
            -40.37706504677201,
            -20.06107721906819,
            73.67822
          ],
          [
            -40.37725770134514,
            -20.06065151700853,
            73.67822
          ],
          [
            -40.37750258584715,
            -20.06021038170685,
            73.67822
          ],
          [
            -40.37795050206052,
            -20.05947523807758,
            73.67822
          ],
          [
            -40.37827584522758,
            -20.05897741429267,
            73.67822
          ],
          [
            -40.37918069638523,
            -20.0575836545657,
            73.67822
          ],
          [
            -40.37986163445526,
            -20.05649794283499,
            73.67822
          ],
          [
            -40.38019691134244,
            -20.055994771757,
            73.67822
          ],
          [
            -40.38043066701069,
            -20.0557039164676,
            73.67822
          ],
          [
            -40.38070663038526,
            -20.05541254483176,
            73.67822
          ],
          [
            -40.38109702364975,
            -20.05507449902731,
            73.67822
          ],
          [
            -40.38140708810428,
            -20.05483966708429,
            73.67822
          ],
          [
            -40.38174714662775,
            -20.05456505047461,
            73.67822
          ],
          [
            -40.38272728333249,
            -20.05395710844469,
            73.67822
          ],
          [
            -40.38298778803173,
            -20.05378740226024,
            73.67822
          ],
          [
            -40.38331667312848,
            -20.05349973410201,
            73.67822
          ],
          [
            -40.38361596655219,
            -20.05320195433448,
            73.67822
          ],
          [
            -40.38382782336608,
            -20.05298170128428,
            73.67822
          ],
          [
            -40.3841054748535,
            -20.05263692710983,
            73.67822
          ],
          [
            -40.38448858341344,
            -20.05202842198213,
            73.67822
          ],
          [
            -40.38513395507021,
            -20.0509384139914,
            73.67822
          ],
          [
            -40.38567728718567,
            -20.05001027263545,
            73.67822
          ],
          [
            -40.38635115883831,
            -20.04885366744282,
            73.67822
          ],
          [
            -40.38706522087252,
            -20.04762820616839,
            73.67822
          ],
          [
            -40.38774418011825,
            -20.04647039879523,
            73.67822
          ],
          [
            -40.38806694169311,
            -20.0459179101889,
            73.67822
          ],
          [
            -40.38821395119143,
            -20.04570699722321,
            73.67822
          ],
          [
            -40.38918189294574,
            -20.04456049227611,
            73.67822
          ],
          [
            -40.3898110001749,
            -20.04407666924277,
            73.67822
          ],
          [
            -40.39092323613691,
            -20.0432061482136,
            73.67822
          ],
          [
            -40.39184787869402,
            -20.04227394427337,
            73.67822
          ],
          [
            -40.3922187405275,
            -20.04163075412497,
            73.67822
          ],
          [
            -40.39267513180295,
            -20.04029521207991,
            73.67822
          ],
          [
            -40.39270464081383,
            -20.03988246860336,
            73.67822
          ],
          [
            -40.39276936321635,
            -20.03916730999079,
            73.67822
          ],
          [
            -40.39283933447832,
            -20.03835827230865,
            73.67822
          ],
          [
            -40.39312157264072,
            -20.03722128377195,
            73.67822
          ],
          [
            -40.39336422761372,
            -20.03665850084381,
            73.67822
          ],
          [
            -40.39485713316216,
            -20.03455531527881,
            73.67822
          ],
          [
            -40.39509832523522,
            -20.03426249982354,
            73.67822
          ],
          [
            -40.3957279229023,
            -20.03354427365906,
            73.67822
          ],
          [
            -40.39592956694526,
            -20.03296998430268,
            73.67822
          ],
          [
            -40.39633126254012,
            -20.03234657934758,
            73.67822
          ],
          [
            -40.3968221271582,
            -20.0317227270544,
            73.67822
          ],
          [
            -40.39722109393876,
            -20.03130305289546,
            73.67822
          ],
          [
            -40.39743565139716,
            -20.03095854875937,
            73.67822
          ],
          [
            -40.39764736845392,
            -20.03044097482531,
            73.67822
          ],
          [
            -40.39779014199478,
            -20.02977482330598,
            73.67822
          ],
          [
            -40.39786525593489,
            -20.02932400993932,
            73.67822
          ],
          [
            -40.39802343248472,
            -20.02783557979267,
            73.67822
          ],
          [
            -40.39805991926902,
            -20.02735710810782,
            73.67822
          ],
          [
            -40.3981740530493,
            -20.02682267859516,
            73.67822
          ],
          [
            -40.39835142795376,
            -20.02628342321319,
            73.67822
          ],
          [
            -40.39867282075814,
            -20.02551737396508,
            73.67822
          ],
          [
            -40.39886746824767,
            -20.02523100258347,
            73.67822
          ],
          [
            -40.39957317912274,
            -20.02438717500799,
            73.67822
          ],
          [
            -40.40070528729782,
            -20.02322539660527,
            73.67822
          ],
          [
            -40.40148676843928,
            -20.02237746525662,
            73.67822
          ],
          [
            -40.40196842770425,
            -20.0218249920837,
            73.67822
          ],
          [
            -40.40250264175234,
            -20.02100080590887,
            73.67822
          ],
          [
            -40.40277655210816,
            -20.02040379156317,
            73.67822
          ],
          [
            -40.40324885237479,
            -20.01885674396675,
            73.67822
          ],
          [
            -40.40355610118721,
            -20.01783362096098,
            73.67822
          ],
          [
            -40.40424981649294,
            -20.0150483830622,
            73.67822
          ],
          [
            -40.40445819557227,
            -20.01459248988943,
            73.67822
          ],
          [
            -40.40472090959626,
            -20.0141523882996,
            73.67822
          ],
          [
            -40.40549478951928,
            -20.01307363271854,
            73.67822
          ],
          [
            -40.40606566824401,
            -20.01219520070846,
            73.67822
          ],
          [
            -40.40643236328968,
            -20.01138597120072,
            73.67822
          ],
          [
            -40.40675508468536,
            -20.01015803870299,
            73.67822
          ],
          [
            -40.40691996172858,
            -20.00915365433504,
            73.67822
          ],
          [
            -40.40707251616757,
            -20.00867427263951,
            73.67822
          ],
          [
            -40.40717776869388,
            -20.00847991046547,
            73.67822
          ],
          [
            -40.40730943361977,
            -20.00790172830653,
            73.67822
          ],
          [
            -40.40749332504923,
            -20.00724827904635,
            73.67822
          ],
          [
            -40.40762259855592,
            -20.00701249936084,
            73.67822
          ],
          [
            -40.40779937725977,
            -20.00680372062703,
            73.67822
          ],
          [
            -40.40813548853286,
            -20.00650117987798,
            73.67822
          ],
          [
            -40.40838110616799,
            -20.0063680072574,
            73.67822
          ],
          [
            -40.40858348815003,
            -20.00621216308751,
            73.67822
          ],
          [
            -40.40868308623129,
            -20.00607823059978,
            73.67822
          ],
          [
            -40.40875090213893,
            -20.0059217360202,
            73.67822
          ],
          [
            -40.40892045618529,
            -20.00560874137403,
            73.67822
          ],
          [
            -40.40888952988539,
            -20.00516537957724,
            73.67822
          ],
          [
            -40.40879383415728,
            -20.00468435606366,
            73.67822
          ],
          [
            -40.40879070500909,
            -20.00445094003978,
            73.67822
          ],
          [
            -40.40886775601328,
            -20.00421620264119,
            73.67822
          ],
          [
            -40.40905273758655,
            -20.0039550277111,
            73.67822
          ],
          [
            -40.40939808449972,
            -20.00371734532009,
            73.67822
          ],
          [
            -40.40965754410743,
            -20.00365354714224,
            73.67822
          ],
          [
            -40.40987033136709,
            -20.00365350920766,
            73.67822
          ],
          [
            -40.41096398345886,
            -20.00385615794936,
            73.67822
          ],
          [
            -40.41122716623861,
            -20.00386770036956,
            73.67822
          ],
          [
            -40.41142143874473,
            -20.00381260529179,
            73.67822
          ],
          [
            -40.41160027890682,
            -20.00369665840464,
            73.67822
          ],
          [
            -40.41176476577905,
            -20.00355458199681,
            73.67822
          ],
          [
            -40.41194028504058,
            -20.00331668899201,
            73.67822
          ],
          [
            -40.41209807310941,
            -20.00244836080467,
            73.67822
          ],
          [
            -40.41207641816727,
            -20.00137038201425,
            73.67822
          ],
          [
            -40.41252598489718,
            -20.0009649320239,
            73.67822
          ],
          [
            -40.41271550045332,
            -20.00065558007333,
            73.67822
          ],
          [
            -40.412896116281,
            -19.9999692954312,
            73.67822
          ],
          [
            -40.41306391742721,
            -19.99977984340486,
            73.67822
          ],
          [
            -40.41325976392874,
            -19.99962323594091,
            73.67822
          ],
          [
            -40.41337856511223,
            -19.99948645820368,
            73.67822
          ],
          [
            -40.41369393605004,
            -19.99856676205106,
            73.67822
          ],
          [
            -40.41386751668234,
            -19.99784550914499,
            73.67822
          ],
          [
            -40.41397737370093,
            -19.99756559676521,
            73.67822
          ],
          [
            -40.41418235813873,
            -19.99691831044587,
            73.67822
          ],
          [
            -40.41421778389078,
            -19.99677835872927,
            73.67822
          ],
          [
            -40.41424238933539,
            -19.99584423817755,
            73.67822
          ],
          [
            -40.41417124874862,
            -19.99486255191264,
            73.67822
          ],
          [
            -40.41416037006614,
            -19.9938123258429,
            73.67822
          ],
          [
            -40.41412818403523,
            -19.99261755716037,
            73.67822
          ],
          [
            -40.41406415902974,
            -19.99173682527469,
            73.67822
          ],
          [
            -40.41399316771538,
            -19.99139364177791,
            73.67822
          ],
          [
            -40.41384771910506,
            -19.99105696313817,
            73.67822
          ],
          [
            -40.41356039825462,
            -19.99051077962282,
            73.67822
          ],
          [
            -40.41342202590833,
            -19.99009854935304,
            73.67822
          ],
          [
            -40.41341134384608,
            -19.9898986306668,
            73.67822
          ],
          [
            -40.41345027386417,
            -19.98958017717698,
            73.67822
          ],
          [
            -40.41349987996219,
            -19.98943689050709,
            73.67822
          ],
          [
            -40.41373022868761,
            -19.98892740617594,
            73.67822
          ],
          [
            -40.41404208516072,
            -19.98824835347965,
            73.67822
          ],
          [
            -40.41415897695941,
            -19.98776048982987,
            73.67822
          ],
          [
            -40.41414117834425,
            -19.98745061642983,
            73.67822
          ],
          [
            -40.41407367279144,
            -19.98683957953513,
            73.67822
          ],
          [
            -40.41393518964597,
            -19.985935569845,
            73.67822
          ],
          [
            -40.41383574638957,
            -19.98519684859874,
            73.67822
          ],
          [
            -40.41372565149035,
            -19.98438739511837,
            73.67822
          ],
          [
            -40.41347715313932,
            -19.982997373409,
            73.67822
          ],
          [
            -40.41335252638984,
            -19.98259396902576,
            73.67822
          ],
          [
            -40.41317519647158,
            -19.98233743947484,
            73.67822
          ],
          [
            -40.41294466618416,
            -19.98199335728732,
            73.67822
          ],
          [
            -40.4127141674121,
            -19.98179014950024,
            73.67822
          ],
          [
            -40.41238135015746,
            -19.98156384001744,
            73.67822
          ],
          [
            -40.41178565715476,
            -19.98128739647941,
            73.67822
          ],
          [
            -40.4102826651402,
            -19.98070651910033,
            73.67822
          ],
          [
            -40.4095951299071,
            -19.98041902198122,
            73.67822
          ],
          [
            -40.40931855263849,
            -19.98024247424384,
            73.67822
          ],
          [
            -40.40895430675945,
            -19.97995598555353,
            73.67822
          ],
          [
            -40.40875217990569,
            -19.97975943104667,
            73.67822
          ],
          [
            -40.4081783362673,
            -19.97896477582785,
            73.67822
          ],
          [
            -40.40801872711162,
            -19.97862160428809,
            73.67822
          ],
          [
            -40.40761792948759,
            -19.97772832602246,
            73.67822
          ],
          [
            -40.40712845090886,
            -19.9766950653518,
            73.67822
          ],
          [
            -40.40701491178228,
            -19.97621665189073,
            73.67822
          ],
          [
            -40.4069936134809,
            -19.97607671047744,
            73.67822
          ],
          [
            -40.40702896070643,
            -19.97550093135394,
            73.67822
          ],
          [
            -40.40705021375895,
            -19.97540096736548,
            73.67822
          ],
          [
            -40.40728408961725,
            -19.97478726693933,
            73.67822
          ],
          [
            -40.40760302807328,
            -19.97406078287554,
            73.67822
          ],
          [
            -40.40802472736511,
            -19.97308364542461,
            73.67822
          ],
          [
            -40.4084463157556,
            -19.97197226875931,
            73.67822
          ],
          [
            -40.40851717104182,
            -19.97171902393013,
            73.67822
          ],
          [
            -40.40852421644537,
            -19.97148578148649,
            73.67822
          ],
          [
            -40.40844612539617,
            -19.97098846545822,
            73.67822
          ],
          [
            -40.40835390873058,
            -19.97077190007084,
            73.67822
          ],
          [
            -40.40820851053931,
            -19.97053535096391,
            73.67822
          ],
          [
            -40.40793900215472,
            -19.97014452968551,
            73.67822
          ],
          [
            -40.40754184810712,
            -19.96964372135747,
            73.67822
          ],
          [
            -40.40677883845319,
            -19.96828861217837,
            73.67822
          ],
          [
            -40.40643593441277,
            -19.96718707252705,
            73.67822
          ],
          [
            -40.40637561827901,
            -19.96692051970593,
            73.67822
          ],
          [
            -40.4063826156459,
            -19.96640507579282,
            73.67822
          ],
          [
            -40.40641792185255,
            -19.96560482169524,
            73.67822
          ],
          [
            -40.40644957262609,
            -19.96419421395029,
            73.67822
          ],
          [
            -40.40650962393448,
            -19.96301159504245,
            73.67822
          ],
          [
            -40.40655560536944,
            -19.96243665983113,
            73.67822
          ],
          [
            -40.40663001112254,
            -19.96222339871575,
            73.67822
          ],
          [
            -40.40686025033339,
            -19.96121128058959,
            73.67822
          ],
          [
            -40.40716488875813,
            -19.95997494845685,
            73.67822
          ],
          [
            -40.40740219739061,
            -19.95889116595378,
            73.67822
          ],
          [
            -40.40757926097112,
            -19.95792202406922,
            73.67822
          ],
          [
            -40.40760751219106,
            -19.9573475029651,
            73.67822
          ],
          [
            -40.40776326793582,
            -19.95618527346685,
            73.67822
          ],
          [
            -40.40797577464981,
            -19.95521733330347,
            73.67822
          ],
          [
            -40.40832646976045,
            -19.95394043323696,
            73.67822
          ],
          [
            -40.40871930536382,
            -19.95250644015255,
            73.67822
          ],
          [
            -40.40896718576615,
            -19.95121388448942,
            73.67822
          ],
          [
            -40.40911174537533,
            -19.9501215014926,
            73.67822
          ],
          [
            -40.40928513958335,
            -19.94862781095636,
            73.67822
          ],
          [
            -40.40935582001357,
            -19.94755875217766,
            73.67822
          ],
          [
            -40.40928840410712,
            -19.94721889947307,
            73.67822
          ],
          [
            -40.40914300066831,
            -19.94685331444188,
            73.67822
          ],
          [
            -40.40886996919541,
            -19.94637641551067,
            73.67822
          ],
          [
            -40.40847997293627,
            -19.94593332517451,
            73.67822
          ],
          [
            -40.40790918912015,
            -19.94541677341424,
            73.67822
          ],
          [
            -40.40681141890641,
            -19.94444667281358,
            73.67822
          ],
          [
            -40.40638831726989,
            -19.9439909989537,
            73.67822
          ],
          [
            -40.4061578481202,
            -19.94360785366327,
            73.67822
          ],
          [
            -40.40600181251965,
            -19.94319895535499,
            73.67822
          ],
          [
            -40.40596626562161,
            -19.94262948518755,
            73.67822
          ],
          [
            -40.40600875406044,
            -19.94237291313347,
            73.67822
          ],
          [
            -40.40611852951523,
            -19.9417782132645,
            73.67822
          ],
          [
            -40.40628854176352,
            -19.94107559854569,
            73.67822
          ],
          [
            -40.40655060544135,
            -19.93980123500277,
            73.67822
          ],
          [
            -40.4065539559132,
            -19.93872863304221,
            73.67822
          ],
          [
            -40.40651115272485,
            -19.9372469426118,
            73.67822
          ],
          [
            -40.40638690519575,
            -19.93617838565425,
            73.67822
          ],
          [
            -40.40625215793468,
            -19.93585853264898,
            73.67822
          ],
          [
            -40.40542245744208,
            -19.93481721166346,
            73.67822
          ],
          [
            -40.40494520300404,
            -19.93407058813149,
            73.67822
          ],
          [
            -40.4049061585234,
            -19.93374072602255,
            73.67822
          ],
          [
            -40.40480407679485,
            -19.9334740822307,
            73.67822
          ],
          [
            -40.40476510987362,
            -19.93332765243235,
            73.67822
          ],
          [
            -40.40483688894155,
            -19.93304816150608,
            73.67822
          ],
          [
            -40.40496215940686,
            -19.93287486279358,
            73.67822
          ],
          [
            -40.40506574679831,
            -19.93273741957388,
            73.67822
          ],
          [
            -40.40507622888488,
            -19.93273772258469,
            73.67822
          ],
          [
            -40.40508161581776,
            -19.93273294433056,
            73.67822
          ],
          [
            -40.40524877815778,
            -19.93223389969255,
            73.67822
          ],
          [
            -40.40539000866859,
            -19.93191379223033,
            73.67822
          ],
          [
            -40.40556396278269,
            -19.93157946421911,
            73.67822
          ],
          [
            -40.40563574229149,
            -19.93153657949041,
            73.67822
          ],
          [
            -40.40568751283691,
            -19.93155081746723,
            73.67822
          ],
          [
            -40.40569005232233,
            -19.93161069746251,
            73.67822
          ],
          [
            -40.40563442087563,
            -19.931713686422,
            73.67822
          ],
          [
            -40.40553279257045,
            -19.93191085118463,
            73.67822
          ],
          [
            -40.40541352025835,
            -19.9322920101669,
            73.67822
          ],
          [
            -40.40523267326579,
            -19.9327361367831,
            73.67822
          ],
          [
            -40.40515734276643,
            -19.93305741018633,
            73.67822
          ],
          [
            -40.40517245796793,
            -19.93329362986617,
            73.67822
          ],
          [
            -40.40515238219486,
            -19.93345426360659,
            73.67822
          ],
          [
            -40.40511721899654,
            -19.93354875743025,
            73.67822
          ]
        ]
      },
      "properties": {
        "data_versao": "07_12_2025",
        "tipo_linha": "Fundao",
        "codigo_linha": "888",
        "itinerario": "888V",
        "terminal_origem": "TLA",
        "terminal_destino": "não integrada"
      }
    }
  ]
}