{
  "type": "FeatureCollection",
  "features": [
    {
      "type": "Feature",
      "geometry": {
        "type": "LineString",
        "coordinates": [
          [
            -40.2913567268026,
            -20.32726577846541,
            0
          ],
          [
            -40.29117939869685,
            -20.32492357649782,
            0
          ],
          [
            -40.29118899357554,
            -20.32404215031213,
            0
          ],
          [
            -40.291458258463,
            -20.32307190191057,
            0
          ],
          [
            -40.2918167707417,
            -20.32246771919851,
            0
          ],
          [
            -40.2923543963031,
            -20.32175451489516,
            0
          ],
          [
            -40.29260096842624,
            -20.32155319685381,
            0
          ],
          [
            -40.29288754639524,
            -20.32138548475592,
            0
          ],
          [
            -40.29445855438512,
            -20.32106449452477,
            0
          ],
          [
            -40.29569228099302,
            -20.3211169001781,
            0
          ],
          [
            -40.29710393438659,
            -20.3213243895876,
            0
          ],
          [
            -40.29868282452829,
            -20.32139624984979,
            0
          ],
          [
            -40.30575982362148,
            -20.3219503710412,
            0
          ],
          [
            -40.31176465793096,
            -20.32185247183578,
            0
          ],
          [
            -40.31785960237482,
            -20.32101671655075,
            0
          ],
          [
            -40.32005073289964,
            -20.32103895433036,
            0
          ],
          [
            -40.32144768989978,
            -20.32111784829054,
            0
          ],
          [
            -40.32312945618531,
            -20.3214260486852,
            0
          ],
          [
            -40.32478229153178,
            -20.32165564041933,
            0
          ],
          [
            -40.32652178721315,
            -20.32195101666576,
            0
          ],
          [
            -40.33117565711429,
            -20.3227494686005,
            0
          ],
          [
            -40.33894092372999,
            -20.32406581286365,
            0
          ],
          [
            -40.34745908111083,
            -20.3252650030322,
            0
          ],
          [
            -40.34933638990768,
            -20.32501549161647,
            0
          ],
          [
            -40.35064728758329,
            -20.32481705389552,
            0
          ],
          [
            -40.35281493272212,
            -20.32387918897797,
            0
          ],
          [
            -40.35273053650742,
            -20.32392908579987,
            0
          ],
          [
            -40.35618474730516,
            -20.32154375881905,
            0
          ],
          [
            -40.35898841333238,
            -20.31944849534291,
            0
          ],
          [
            -40.3602356132303,
            -20.31784957631227,
            0
          ],
          [
            -40.360937109985,
            -20.31587834787175,
            0
          ],
          [
            -40.36133473908313,
            -20.31465218860662,
            0
          ],
          [
            -40.36165092562695,
            -20.31274036632735,
            0
          ],
          [
            -40.36221975754292,
            -20.31144016881944,
            0
          ],
          [
            -40.36300181372305,
            -20.31046711329379,
            0
          ],
          [
            -40.36342213634693,
            -20.31007880797719,
            0
          ],
          [
            -40.36392676642277,
            -20.30973380465385,
            0
          ]
        ]
      },
      "properties": {
        "data_versao": "07_12_2025",
        "tipo_linha": "Aquaviário",
        "codigo_linha": "403",
        "itinerario": "403V",
        "terminal_origem": "não integrada",
        "terminal_destino": "não integrada"
      }
    },
    {
      "type": "Feature",
      "geometry": {
        "type": "LineString",
        "coordinates": [
          [
            -40.36389418995099,
            -20.30970444751809,
            0
          ],
          [
            -40.36367505159639,
            -20.30982910085765,
            0
          ],
          [
            -40.36334631534864,
            -20.31006479553821,
            0
          ],
          [
            -40.36316969760871,
            -20.31022848627045,
            0
          ],
          [
            -40.36300383323071,
            -20.31039016443193,
            0
          ],
          [
            -40.36256067873837,
            -20.31082700986601,
            0
          ],
          [
            -40.36199789352482,
            -20.31167017540948,
            0
          ],
          [
            -40.36158883174907,
            -20.31272854486853,
            0
          ],
          [
            -40.36110803576756,
            -20.31446572662568,
            0
          ],
          [
            -40.36070366089905,
            -20.31605923691846,
            0
          ],
          [
            -40.36040012759948,
            -20.31715982783283,
            0
          ],
          [
            -40.35983043950835,
            -20.31813624312241,
            0
          ],
          [
            -40.35905543977733,
            -20.31909000284806,
            0
          ],
          [
            -40.3581794525355,
            -20.31999056650139,
            0
          ],
          [
            -40.35740464547352,
            -20.32060392904452,
            0
          ],
          [
            -40.35226515339573,
            -20.32409550569911,
            0
          ],
          [
            -40.35047646282693,
            -20.32480820159882,
            0
          ],
          [
            -40.34744149556316,
            -20.32521386693252,
            0
          ],
          [
            -40.3396657563271,
            -20.32412733646913,
            0
          ],
          [
            -40.32545580839631,
            -20.32164631654654,
            0
          ],
          [
            -40.3240391255381,
            -20.32144078854152,
            0
          ],
          [
            -40.32264023486032,
            -20.32121190014276,
            0
          ],
          [
            -40.32121156751764,
            -20.3209908415457,
            0
          ],
          [
            -40.32005041066346,
            -20.32090135596621,
            0
          ],
          [
            -40.31881799316587,
            -20.32086374983109,
            0
          ],
          [
            -40.31679276309885,
            -20.3210014209343,
            0
          ],
          [
            -40.31494795553554,
            -20.32124834106779,
            0
          ],
          [
            -40.31184265810306,
            -20.32171693650436,
            0
          ],
          [
            -40.30596800090939,
            -20.32182526942344,
            0
          ],
          [
            -40.29848931864395,
            -20.32131492710231,
            0
          ],
          [
            -40.29716419442352,
            -20.32118902291319,
            0
          ],
          [
            -40.2953379142082,
            -20.32099113853893,
            0
          ],
          [
            -40.2945689850706,
            -20.32093421932813,
            0
          ],
          [
            -40.294244815516,
            -20.32096503382678,
            0
          ],
          [
            -40.29369568881044,
            -20.32105153788739,
            0
          ],
          [
            -40.29325239312362,
            -20.32115671800647,
            0
          ],
          [
            -40.29289507719476,
            -20.321286765828,
            0
          ],
          [
            -40.2927891038303,
            -20.32146660076381,
            0
          ],
          [
            -40.29255740766533,
            -20.32169166982151,
            0
          ],
          [
            -40.29224622612453,
            -20.32205747930816,
            0
          ],
          [
            -40.29198135449892,
            -20.32241711371725,
            0
          ],
          [
            -40.29172969390559,
            -20.32280156998055,
            0
          ],
          [
            -40.29153767338472,
            -20.32304338369645,
            0
          ],
          [
            -40.29145143865692,
            -20.32336591089209,
            0
          ],
          [
            -40.29125910798907,
            -20.32403015721791,
            0
          ],
          [
            -40.29123219785892,
            -20.32464428753184,
            0
          ],
          [
            -40.29122543723345,
            -20.3248427956228,
            0
          ],
          [
            -40.29131725216133,
            -20.32594015724424,
            0
          ],
          [
            -40.29144852568355,
            -20.32735464643093,
            0
          ]
        ]
      },
      "properties": {
        "data_versao": "07_12_2025",
        "tipo_linha": "Aquaviário",
        "codigo_linha": "403",
        "itinerario": "403I",
        "terminal_origem": "não integrada",
        "terminal_destino": "não integrada"
      }
    },
    {
      "type": "Feature",
      "geometry": {
        "type": "LineString",
        "coordinates": [
          [
            -40.29427501908114,
            -20.31847897204682,
            0
          ],
          [
            -40.29423125961565,
            -20.31876831252445,
            0
          ],
          [
            -40.29414157433661,
            -20.31964379513385,
            0
          ],
          [
            -40.29436245236186,
            -20.3203442647699,
            0
          ],
          [
            -40.29474930823852,
            -20.3207569227621,
            0
          ],
          [
            -40.2952384555968,
            -20.32104485834932,
            0
          ],
          [
            -40.29569228099302,
            -20.3211169001781,
            0
          ],
          [
            -40.29710393438659,
            -20.3213243895876,
            0
          ],
          [
            -40.29868282452829,
            -20.32139624984979,
            0
          ],
          [
            -40.30575982362148,
            -20.3219503710412,
            0
          ],
          [
            -40.31176465793096,
            -20.32185247183578,
            0
          ],
          [
            -40.31785960237482,
            -20.32101671655075,
            0
          ],
          [
            -40.32005073289964,
            -20.32103895433036,
            0
          ],
          [
            -40.32144768989978,
            -20.32111784829054,
            0
          ],
          [
            -40.32312945618531,
            -20.3214260486852,
            0
          ],
          [
            -40.32478229153178,
            -20.32165564041933,
            0
          ],
          [
            -40.32652178721315,
            -20.32195101666576,
            0
          ],
          [
            -40.33117565711429,
            -20.3227494686005,
            0
          ],
          [
            -40.33894092372999,
            -20.32406581286365,
            0
          ],
          [
            -40.34745908111083,
            -20.3252650030322,
            0
          ],
          [
            -40.34933638990768,
            -20.32501549161647,
            0
          ],
          [
            -40.35064728758329,
            -20.32481705389552,
            0
          ],
          [
            -40.35281493272212,
            -20.32387918897797,
            0
          ],
          [
            -40.35273053650742,
            -20.32392908579987,
            0
          ],
          [
            -40.35618474730516,
            -20.32154375881905,
            0
          ],
          [
            -40.35898841333238,
            -20.31944849534291,
            0
          ],
          [
            -40.3602356132303,
            -20.31784957631227,
            0
          ],
          [
            -40.360937109985,
            -20.31587834787175,
            0
          ],
          [
            -40.36133473908313,
            -20.31465218860662,
            0
          ],
          [
            -40.36165092562695,
            -20.31274036632735,
            0
          ],
          [
            -40.36221975754292,
            -20.31144016881944,
            0
          ],
          [
            -40.36300181372305,
            -20.31046711329379,
            0
          ],
          [
            -40.36342213634693,
            -20.31007880797719,
            0
          ],
          [
            -40.36392676642277,
            -20.30973380465385,
            0
          ]
        ]
      },
      "properties": {
        "data_versao": "07_12_2025",
        "tipo_linha": "Aquaviário",
        "codigo_linha": "401",
        "itinerario": "401V",
        "terminal_origem": "não integrada",
        "terminal_destino": "não integrada"
      }
    },
    {
      "type": "Feature",
      "geometry": {
        "type": "LineString",
        "coordinates": [
          [
            -40.36389418995099,
            -20.30970444751809,
            0
          ],
          [
            -40.36367505159639,
            -20.30982910085765,
            0
          ],
          [
            -40.36334631534864,
            -20.31006479553821,
            0
          ],
          [
            -40.36316969760871,
            -20.31022848627045,
            0
          ],
          [
            -40.36300383323071,
            -20.31039016443193,
            0
          ],
          [
            -40.36256067873837,
            -20.31082700986601,
            0
          ],
          [
            -40.36199789352482,
            -20.31167017540948,
            0
          ],
          [
            -40.36158883174907,
            -20.31272854486853,
            0
          ],
          [
            -40.36110803576756,
            -20.31446572662568,
            0
          ],
          [
            -40.36070366089905,
            -20.31605923691846,
            0
          ],
          [
            -40.36040012759948,
            -20.31715982783283,
            0
          ],
          [
            -40.35983043950835,
            -20.31813624312241,
            0
          ],
          [
            -40.35905543977733,
            -20.31909000284806,
            0
          ],
          [
            -40.3581794525355,
            -20.31999056650139,
            0
          ],
          [
            -40.35740464547352,
            -20.32060392904452,
            0
          ],
          [
            -40.35226515339573,
            -20.32409550569911,
            0
          ],
          [
            -40.35047646282693,
            -20.32480820159882,
            0
          ],
          [
            -40.34744149556316,
            -20.32521386693252,
            0
          ],
          [
            -40.3396657563271,
            -20.32412733646913,
            0
          ],
          [
            -40.32545580839631,
            -20.32164631654654,
            0
          ],
          [
            -40.3240391255381,
            -20.32144078854152,
            0
          ],
          [
            -40.32264023486032,
            -20.32121190014276,
            0
          ],
          [
            -40.32121156751764,
            -20.3209908415457,
            0
          ],
          [
            -40.32005041066346,
            -20.32090135596621,
            0
          ],
          [
            -40.31881799316587,
            -20.32086374983109,
            0
          ],
          [
            -40.31679276309885,
            -20.3210014209343,
            0
          ],
          [
            -40.31494795553554,
            -20.32124834106779,
            0
          ],
          [
            -40.31184265810306,
            -20.32171693650436,
            0
          ],
          [
            -40.30596800090939,
            -20.32182526942344,
            0
          ],
          [
            -40.29848931864395,
            -20.32131492710231,
            0
          ],
          [
            -40.29716419442352,
            -20.32118902291319,
            0
          ],
          [
            -40.2953379142082,
            -20.32099113853893,
            0
          ],
          [
            -40.2946504039616,
            -20.32075798499616,
            0
          ],
          [
            -40.29396301843254,
            -20.32029198270914,
            0
          ],
          [
            -40.29346673387211,
            -20.31966486333597,
            0
          ],
          [
            -40.29350536222154,
            -20.31891261398919,
            0
          ],
          [
            -40.29396400491186,
            -20.31853669825614,
            0
          ],
          [
            -40.29434681812978,
            -20.31853484746182,
            0
          ]
        ]
      },
      "properties": {
        "data_versao": "07_12_2025",
        "tipo_linha": "Aquaviário",
        "codigo_linha": "401",
        "itinerario": "401I",
        "terminal_origem": "não integrada",
        "terminal_destino": "não integrada"
      }
    },
    {
      "type": "Feature",
      "geometry": {
        "type": "LineString",
        "coordinates": [
          [
            -40.2942974799331,
            -20.31841161429761,
            0
          ],
          [
            -40.29414108481578,
            -20.31883181340418,
            0
          ],
          [
            -40.2940391250589,
            -20.31921568070652,
            0
          ],
          [
            -40.29387495383219,
            -20.3196725649796,
            0
          ],
          [
            -40.29374871190739,
            -20.31996651782455,
            0
          ],
          [
            -40.29277355051472,
            -20.32144008483547,
            0
          ],
          [
            -40.29205938626856,
            -20.32227259153623,
            0
          ],
          [
            -40.29155308950696,
            -20.32302481010004,
            0
          ],
          [
            -40.29127346433984,
            -20.3239407229259,
            0
          ],
          [
            -40.29120321979681,
            -20.32475859430987,
            0
          ],
          [
            -40.29134199495123,
            -20.32611639659051,
            0
          ],
          [
            -40.29135907111083,
            -20.32675438381708,
            0
          ],
          [
            -40.29143100861027,
            -20.327387473416,
            0
          ]
        ]
      },
      "properties": {
        "data_versao": "07_12_2025",
        "tipo_linha": "Aquaviário",
        "codigo_linha": "402",
        "itinerario": "402I",
        "terminal_origem": "não integrada",
        "terminal_destino": "não integrada"
      }
    },
    {
      "type": "Feature",
      "geometry": {
        "type": "LineString",
        "coordinates": [
          [
            -40.29138593315893,
            -20.32725394353607,
            0
          ],
          [
            -40.29135292904569,
            -20.32702166749641,
            0
          ],
          [
            -40.29133973325649,
            -20.32686681796498,
            0
          ],
          [
            -40.29132482739695,
            -20.32671786305225,
            0
          ],
          [
            -40.29131004703919,
            -20.3264704045277,
            0
          ],
          [
            -40.29122882587458,
            -20.32548839001866,
            0
          ],
          [
            -40.29114193273697,
            -20.32471521416859,
            0
          ],
          [
            -40.29119991131343,
            -20.32393469191577,
            0
          ],
          [
            -40.29150398647179,
            -20.32297772560867,
            0
          ],
          [
            -40.29240880754949,
            -20.32170180875909,
            0
          ],
          [
            -40.29326067500629,
            -20.32052455957094,
            0
          ],
          [
            -40.29366380597976,
            -20.31980220477048,
            0
          ],
          [
            -40.29379796435915,
            -20.31951025242493,
            0
          ],
          [
            -40.29396136389097,
            -20.31907473466595,
            0
          ],
          [
            -40.29405473480954,
            -20.31882086494067,
            0
          ],
          [
            -40.29422980156518,
            -20.31838534688571,
            0
          ]
        ]
      },
      "properties": {
        "data_versao": "07_12_2025",
        "tipo_linha": "Aquaviário",
        "codigo_linha": "402",
        "itinerario": "402V",
        "terminal_origem": "não integrada",
        "terminal_destino": "não integrada"
      }
    }
  ]
}