{
  "type": "FeatureCollection",
  "features": [
    {
      "type": "Feature",
      "geometry": {
        "type": "LineString",
        "coordinates": [
          [
            -40.28987718863483,
            -20.34195675956227,
            0
          ],
          [
            -40.28978727905029,
            -20.34121199121601,
            0
          ],
          [
            -40.28901305851004,
            -20.34079228259722,
            0
          ],
          [
            -40.28791937125951,
            -20.34019813661785,
            0
          ],
          [
            -40.28710015164259,
            -20.33970229394224,
            0
          ],
          [
            -40.28589129553815,
            -20.33908471364527,
            0
          ],
          [
            -40.28543815217369,
            -20.33880077308442,
            0
          ],
          [
            -40.28500248427683,
            -20.3384312277977,
            0
          ],
          [
            -40.28473218182489,
            -20.33794366027031,
            0
          ],
          [
            -40.28453689846599,
            -20.33678121164459,
            0
          ],
          [
            -40.28430642947834,
            -20.335074916551,
            0
          ],
          [
            -40.28408290742274,
            -20.33354038588325,
            0
          ],
          [
            -40.28376218833455,
            -20.33109518538586,
            0
          ],
          [
            -40.28363962752669,
            -20.33005971875025,
            0
          ],
          [
            -40.28335831990047,
            -20.32853718572029,
            0
          ],
          [
            -40.28306399252721,
            -20.32699972106345,
            0
          ],
          [
            -40.28302227139723,
            -20.32613756497882,
            0
          ],
          [
            -40.28316934277515,
            -20.32512090862305,
            0
          ],
          [
            -40.28358875857853,
            -20.32381407643467,
            0
          ],
          [
            -40.28409798674024,
            -20.32248746839563,
            0
          ],
          [
            -40.28456580003238,
            -20.32124912472028,
            0
          ],
          [
            -40.28516789315991,
            -20.31957735515857,
            0
          ],
          [
            -40.28566722583593,
            -20.31814861158449,
            0
          ],
          [
            -40.28604257310548,
            -20.31722746297022,
            0
          ],
          [
            -40.28644701629772,
            -20.31653426870463,
            0
          ],
          [
            -40.28704165218986,
            -20.31576201986368,
            0
          ],
          [
            -40.28774916160397,
            -20.31510721150054,
            0
          ],
          [
            -40.28837230496375,
            -20.31464061529687,
            0
          ],
          [
            -40.28882035774851,
            -20.31439928753228,
            0
          ],
          [
            -40.28988542336776,
            -20.31392050515109,
            0
          ],
          [
            -40.2910214479847,
            -20.31341224616477,
            0
          ],
          [
            -40.29218256996845,
            -20.31292132849146,
            0
          ],
          [
            -40.292851146499,
            -20.31264489817073,
            0
          ],
          [
            -40.29354865446079,
            -20.31231400032556,
            0
          ],
          [
            -40.29408766421292,
            -20.31200426000369,
            0
          ],
          [
            -40.29431872615368,
            -20.31176231764818,
            0
          ],
          [
            -40.29437022102638,
            -20.31157185994068,
            0
          ],
          [
            -40.29484982444269,
            -20.31050453683711,
            0
          ],
          [
            -40.29484987383031,
            -20.31041275631593,
            0
          ],
          [
            -40.29477779385768,
            -20.31035475524795,
            0
          ],
          [
            -40.29458724806926,
            -20.31029186705119,
            0
          ],
          [
            -40.29456151489877,
            -20.31025321016719,
            0
          ],
          [
            -40.29458731832547,
            -20.31016144166567,
            0
          ],
          [
            -40.29466472857938,
            -20.30994998938764,
            0
          ],
          [
            -40.29470724309316,
            -20.30981684108418,
            0
          ]
        ]
      },
      "properties": {
        "data_versao": "07_12_2025",
        "tipo_linha": "Bike GV",
        "codigo_linha": "400",
        "itinerario": "400I",
        "terminal_origem": "não integrada",
        "terminal_destino": "não integrada"
      }
    },
    {
      "type": "Feature",
      "geometry": {
        "type": "LineString",
        "coordinates": [
          [
            -40.28987718863483,
            -20.34195675956227,
            0
          ],
          [
            -40.28978727905029,
            -20.34121199121601,
            0
          ],
          [
            -40.28901305851004,
            -20.34079228259722,
            0
          ],
          [
            -40.28791937125951,
            -20.34019813661785,
            0
          ],
          [
            -40.28710015164259,
            -20.33970229394224,
            0
          ],
          [
            -40.28589129553815,
            -20.33908471364527,
            0
          ],
          [
            -40.28543815217369,
            -20.33880077308442,
            0
          ],
          [
            -40.28500248427683,
            -20.3384312277977,
            0
          ],
          [
            -40.28473218182489,
            -20.33794366027031,
            0
          ],
          [
            -40.28453689846599,
            -20.33678121164459,
            0
          ],
          [
            -40.28430642947834,
            -20.335074916551,
            0
          ],
          [
            -40.28408290742274,
            -20.33354038588325,
            0
          ],
          [
            -40.28376218833455,
            -20.33109518538586,
            0
          ],
          [
            -40.28363962752669,
            -20.33005971875025,
            0
          ],
          [
            -40.28335831990047,
            -20.32853718572029,
            0
          ],
          [
            -40.28306399252721,
            -20.32699972106345,
            0
          ],
          [
            -40.28302227139723,
            -20.32613756497882,
            0
          ],
          [
            -40.28316934277515,
            -20.32512090862305,
            0
          ],
          [
            -40.28358875857853,
            -20.32381407643467,
            0
          ],
          [
            -40.28409798674024,
            -20.32248746839563,
            0
          ],
          [
            -40.28456580003238,
            -20.32124912472028,
            0
          ],
          [
            -40.28516789315991,
            -20.31957735515857,
            0
          ],
          [
            -40.28566722583593,
            -20.31814861158449,
            0
          ],
          [
            -40.28604257310548,
            -20.31722746297022,
            0
          ],
          [
            -40.28644701629772,
            -20.31653426870463,
            0
          ],
          [
            -40.28704165218986,
            -20.31576201986368,
            0
          ],
          [
            -40.28774916160397,
            -20.31510721150054,
            0
          ],
          [
            -40.28837230496375,
            -20.31464061529687,
            0
          ],
          [
            -40.28882035774851,
            -20.31439928753228,
            0
          ],
          [
            -40.28988542336776,
            -20.31392050515109,
            0
          ],
          [
            -40.2910214479847,
            -20.31341224616477,
            0
          ],
          [
            -40.29218256996845,
            -20.31292132849146,
            0
          ],
          [
            -40.29285287645915,
            -20.31262118867012,
            0
          ],
          [
            -40.29343017316523,
            -20.31220780957941,
            0
          ],
          [
            -40.29373470532968,
            -20.31193537877592,
            0
          ],
          [
            -40.29405268828111,
            -20.31168221595745,
            0
          ],
          [
            -40.29395813229213,
            -20.31133932551807,
            0
          ],
          [
            -40.29370584036725,
            -20.3112067304616,
            0
          ],
          [
            -40.29200358889884,
            -20.31061136058789,
            0
          ],
          [
            -40.29144496855832,
            -20.31041883849887,
            0
          ],
          [
            -40.29074231247945,
            -20.31014779043266,
            0
          ],
          [
            -40.29039818351618,
            -20.30995427672067,
            0
          ],
          [
            -40.29026338929604,
            -20.30977538697898,
            0
          ],
          [
            -40.2902220716764,
            -20.30958714949524,
            0
          ],
          [
            -40.2906388550046,
            -20.3090671038071,
            0
          ],
          [
            -40.2909550962706,
            -20.30861952792865,
            0
          ],
          [
            -40.29129827392993,
            -20.3080884303254,
            0
          ],
          [
            -40.29145650433456,
            -20.3076898464736,
            0
          ],
          [
            -40.29140306259878,
            -20.3075381367009,
            0
          ],
          [
            -40.29159610163425,
            -20.30679638228274,
            0
          ]
        ]
      },
      "properties": {
        "data_versao": "07_12_2025",
        "tipo_linha": "Bike GV",
        "codigo_linha": "400",
        "itinerario": "400I_C",
        "terminal_origem": "não integrada",
        "terminal_destino": "não integrada"
      }
    },
    {
      "type": "Feature",
      "geometry": {
        "type": "LineString",
        "coordinates": [
          [
            -40.29474020646242,
            -20.30981297191106,
            0
          ],
          [
            -40.2948194265475,
            -20.30965270841323,
            0
          ],
          [
            -40.29487545426862,
            -20.30961098514001,
            0
          ],
          [
            -40.29491709943399,
            -20.30961100463755,
            0
          ],
          [
            -40.29555655648285,
            -20.30983117766988,
            0
          ],
          [
            -40.29560473284023,
            -20.30987640351057,
            0
          ],
          [
            -40.29538412370471,
            -20.31047186033797,
            0
          ],
          [
            -40.29532233449131,
            -20.31049441081235,
            0
          ],
          [
            -40.29515255248862,
            -20.31044688814149,
            0
          ],
          [
            -40.2950380843498,
            -20.31043270866562,
            0
          ],
          [
            -40.29495071388628,
            -20.31044679392598,
            0
          ],
          [
            -40.29491150462477,
            -20.31053435722572,
            0
          ],
          [
            -40.2945253349595,
            -20.3115965354892,
            0
          ],
          [
            -40.29444988541091,
            -20.31185076962069,
            0
          ],
          [
            -40.29429013249885,
            -20.3120145574315,
            0
          ],
          [
            -40.29343764130132,
            -20.31248721857343,
            0
          ],
          [
            -40.29309244556183,
            -20.31264785638811,
            0
          ],
          [
            -40.29258270582053,
            -20.31287139683308,
            0
          ],
          [
            -40.29199383116936,
            -20.31311350636938,
            0
          ],
          [
            -40.2913376498305,
            -20.31338668070908,
            0
          ],
          [
            -40.29114071285508,
            -20.31346143391055,
            0
          ],
          [
            -40.29036152511439,
            -20.31380168269478,
            0
          ],
          [
            -40.28995341273886,
            -20.31397848434345,
            0
          ],
          [
            -40.28931871297441,
            -20.31425354318371,
            0
          ],
          [
            -40.28918704041993,
            -20.31431789550781,
            0
          ],
          [
            -40.28874926762454,
            -20.31452968907505,
            0
          ],
          [
            -40.28841766881647,
            -20.31472509414587,
            0
          ],
          [
            -40.28811403923017,
            -20.31491766208988,
            0
          ],
          [
            -40.28767543677554,
            -20.31528123784647,
            0
          ],
          [
            -40.28739251711706,
            -20.31554164362128,
            0
          ],
          [
            -40.28722277622293,
            -20.31571134596507,
            0
          ],
          [
            -40.28696500734181,
            -20.31599611491299,
            0
          ],
          [
            -40.28678871835059,
            -20.31622120653251,
            0
          ],
          [
            -40.28650886514721,
            -20.3166003693209,
            0
          ],
          [
            -40.28631310030531,
            -20.31693480654688,
            0
          ],
          [
            -40.2862179131078,
            -20.3171036132894,
            0
          ],
          [
            -40.2859561629861,
            -20.31767451246019,
            0
          ],
          [
            -40.28588732263031,
            -20.31787614913394,
            0
          ],
          [
            -40.28575435455581,
            -20.31823974780701,
            0
          ],
          [
            -40.28561310936338,
            -20.31859167328184,
            0
          ],
          [
            -40.28542586614307,
            -20.31915920812473,
            0
          ],
          [
            -40.28533534854895,
            -20.31942349831567,
            0
          ],
          [
            -40.28516286572477,
            -20.3199072222618,
            0
          ],
          [
            -40.28501359255292,
            -20.3203040864921,
            0
          ],
          [
            -40.2848030588551,
            -20.32092306286494,
            0
          ],
          [
            -40.28465215814644,
            -20.32130791395265,
            0
          ],
          [
            -40.28459689833645,
            -20.32145659884992,
            0
          ],
          [
            -40.28442634296826,
            -20.32191236011837,
            0
          ],
          [
            -40.28429540627658,
            -20.32227841668711,
            0
          ],
          [
            -40.28421952360882,
            -20.32243186100528,
            0
          ],
          [
            -40.28399408366722,
            -20.32304037196737,
            0
          ],
          [
            -40.28390990156006,
            -20.32326875538925,
            0
          ],
          [
            -40.28360068286728,
            -20.32405239881648,
            0
          ],
          [
            -40.28332695995674,
            -20.32492205770241,
            0
          ],
          [
            -40.28328214721608,
            -20.32515578821163,
            0
          ],
          [
            -40.28324363242247,
            -20.32532124549861,
            0
          ],
          [
            -40.28315590994348,
            -20.32598990668461,
            0
          ],
          [
            -40.28313682657453,
            -20.32615572351857,
            0
          ],
          [
            -40.28312998635182,
            -20.32665774587001,
            0
          ],
          [
            -40.28315661791681,
            -20.32681751702209,
            0
          ],
          [
            -40.28327187692759,
            -20.32761371983172,
            0
          ],
          [
            -40.28332434999403,
            -20.32785171292982,
            0
          ],
          [
            -40.28350192534357,
            -20.32880170267905,
            0
          ],
          [
            -40.28353887676682,
            -20.32899384215939,
            0
          ],
          [
            -40.28370787737834,
            -20.33001511003615,
            0
          ],
          [
            -40.28392172114596,
            -20.33166311845605,
            0
          ],
          [
            -40.28409509062962,
            -20.3328377276053,
            0
          ],
          [
            -40.28423956732308,
            -20.33395721735312,
            0
          ],
          [
            -40.28440854161948,
            -20.33521622199099,
            0
          ],
          [
            -40.28453112943703,
            -20.33602899777532,
            0
          ],
          [
            -40.28468296969778,
            -20.33703541797168,
            0
          ],
          [
            -40.28484499578626,
            -20.33768287554916,
            0
          ],
          [
            -40.28523863465362,
            -20.3383609619451,
            0
          ],
          [
            -40.28553722427905,
            -20.33865138712337,
            0
          ],
          [
            -40.28615261071584,
            -20.33901060364412,
            0
          ],
          [
            -40.28680761961495,
            -20.33937209071042,
            0
          ],
          [
            -40.28729590895233,
            -20.33959502336568,
            0
          ],
          [
            -40.2874414332969,
            -20.33964714058904,
            0
          ],
          [
            -40.28820063032132,
            -20.33966346887264,
            0
          ],
          [
            -40.28907783411997,
            -20.33971791678058,
            0
          ],
          [
            -40.28931341008355,
            -20.33984269201674,
            0
          ],
          [
            -40.28956301396047,
            -20.34005772056096,
            0
          ],
          [
            -40.28973334844184,
            -20.34028951019677,
            0
          ],
          [
            -40.28983233942982,
            -20.34051838031065,
            0
          ],
          [
            -40.28993346299389,
            -20.34115392444452,
            0
          ],
          [
            -40.29005122723235,
            -20.34213310823269,
            0
          ],
          [
            -40.29015489803154,
            -20.34295008737213,
            0
          ],
          [
            -40.29025719610683,
            -20.34395251646891,
            0
          ],
          [
            -40.2902401694969,
            -20.34412077502712,
            0
          ],
          [
            -40.2900829586585,
            -20.34418634855451,
            0
          ],
          [
            -40.28965868756183,
            -20.34425252584984,
            0
          ],
          [
            -40.28857394687176,
            -20.34444399844639,
            0
          ],
          [
            -40.28831289457063,
            -20.34271721632112,
            0
          ],
          [
            -40.28967240451656,
            -20.3424824975004,
            0
          ],
          [
            -40.28994275948651,
            -20.34240428032326,
            0
          ],
          [
            -40.2899017191734,
            -20.34191225532899,
            0
          ]
        ]
      },
      "properties": {
        "data_versao": "07_12_2025",
        "tipo_linha": "Bike GV",
        "codigo_linha": "400",
        "itinerario": "400V",
        "terminal_origem": "não integrada",
        "terminal_destino": "não integrada"
      }
    },
    {
      "type": "Feature",
      "geometry": {
        "type": "LineString",
        "coordinates": [
          [
            -40.29160703136632,
            -20.30679739782353,
            0
          ],
          [
            -40.2916791240906,
            -20.30653223200921,
            0
          ],
          [
            -40.291841178071,
            -20.30641820736765,
            0
          ],
          [
            -40.29192876910427,
            -20.3058674367689,
            0
          ],
          [
            -40.29195240885709,
            -20.30533491036381,
            0
          ],
          [
            -40.29190664413444,
            -20.30469064722466,
            0
          ],
          [
            -40.29185280779789,
            -20.30427468707315,
            0
          ],
          [
            -40.29173313118931,
            -20.30366588676395,
            0
          ],
          [
            -40.29162947180305,
            -20.30331645837023,
            0
          ],
          [
            -40.29155838046312,
            -20.30289776977044,
            0
          ],
          [
            -40.29159903629316,
            -20.30257918846177,
            0
          ],
          [
            -40.29166902811203,
            -20.30250645096908,
            0
          ],
          [
            -40.29177482138153,
            -20.30255249772802,
            0
          ],
          [
            -40.29183478236704,
            -20.30292223020335,
            0
          ],
          [
            -40.29188320314816,
            -20.30332297461327,
            0
          ],
          [
            -40.29198287678233,
            -20.30365044601278,
            0
          ],
          [
            -40.29235069914795,
            -20.30415365113132,
            0
          ],
          [
            -40.29284287971642,
            -20.30471766391305,
            0
          ],
          [
            -40.29368245821904,
            -20.30573693163062,
            0
          ],
          [
            -40.29442055548596,
            -20.30696217392061,
            0
          ],
          [
            -40.29700738575373,
            -20.3104507935025,
            0
          ],
          [
            -40.2968298319171,
            -20.31061714441881,
            0
          ],
          [
            -40.29648217403466,
            -20.31084582865318,
            0
          ],
          [
            -40.29457380521437,
            -20.31200995497474,
            0
          ],
          [
            -40.29429281082506,
            -20.3120236919263,
            0
          ],
          [
            -40.29343764130132,
            -20.31248721857343,
            0
          ],
          [
            -40.29309244556183,
            -20.31264785638811,
            0
          ],
          [
            -40.29258270582053,
            -20.31287139683308,
            0
          ],
          [
            -40.29199383116936,
            -20.31311350636938,
            0
          ],
          [
            -40.2913376498305,
            -20.31338668070908,
            0
          ],
          [
            -40.29114071285508,
            -20.31346143391055,
            0
          ],
          [
            -40.29036152511439,
            -20.31380168269478,
            0
          ],
          [
            -40.28995341273886,
            -20.31397848434345,
            0
          ],
          [
            -40.28931871297441,
            -20.31425354318371,
            0
          ],
          [
            -40.28918704041993,
            -20.31431789550781,
            0
          ],
          [
            -40.28874926762454,
            -20.31452968907505,
            0
          ],
          [
            -40.28841766881647,
            -20.31472509414587,
            0
          ],
          [
            -40.28811403923017,
            -20.31491766208988,
            0
          ],
          [
            -40.28767543677554,
            -20.31528123784647,
            0
          ],
          [
            -40.28739251711706,
            -20.31554164362128,
            0
          ],
          [
            -40.28722277622293,
            -20.31571134596507,
            0
          ],
          [
            -40.28696500734181,
            -20.31599611491299,
            0
          ],
          [
            -40.28678871835059,
            -20.31622120653251,
            0
          ],
          [
            -40.28650886514721,
            -20.3166003693209,
            0
          ],
          [
            -40.28631310030531,
            -20.31693480654688,
            0
          ],
          [
            -40.2862179131078,
            -20.3171036132894,
            0
          ],
          [
            -40.2859561629861,
            -20.31767451246019,
            0
          ],
          [
            -40.28588732263031,
            -20.31787614913394,
            0
          ],
          [
            -40.28575435455581,
            -20.31823974780701,
            0
          ],
          [
            -40.28561310936338,
            -20.31859167328184,
            0
          ],
          [
            -40.28542586614307,
            -20.31915920812473,
            0
          ],
          [
            -40.28533534854895,
            -20.31942349831567,
            0
          ],
          [
            -40.28516286572477,
            -20.3199072222618,
            0
          ],
          [
            -40.28501359255292,
            -20.3203040864921,
            0
          ],
          [
            -40.2848030588551,
            -20.32092306286494,
            0
          ],
          [
            -40.28465215814644,
            -20.32130791395265,
            0
          ],
          [
            -40.28459689833645,
            -20.32145659884992,
            0
          ],
          [
            -40.28442634296826,
            -20.32191236011837,
            0
          ],
          [
            -40.28429540627658,
            -20.32227841668711,
            0
          ],
          [
            -40.28421952360882,
            -20.32243186100528,
            0
          ],
          [
            -40.28399408366722,
            -20.32304037196737,
            0
          ],
          [
            -40.28390990156006,
            -20.32326875538925,
            0
          ],
          [
            -40.28360068286728,
            -20.32405239881648,
            0
          ],
          [
            -40.28332695995674,
            -20.32492205770241,
            0
          ],
          [
            -40.28328214721608,
            -20.32515578821163,
            0
          ],
          [
            -40.28324363242247,
            -20.32532124549861,
            0
          ],
          [
            -40.28315590994348,
            -20.32598990668461,
            0
          ],
          [
            -40.28313682657453,
            -20.32615572351857,
            0
          ],
          [
            -40.28312998635182,
            -20.32665774587001,
            0
          ],
          [
            -40.28315661791681,
            -20.32681751702209,
            0
          ],
          [
            -40.28327187692759,
            -20.32761371983172,
            0
          ],
          [
            -40.28332434999403,
            -20.32785171292982,
            0
          ],
          [
            -40.28350192534357,
            -20.32880170267905,
            0
          ],
          [
            -40.28353887676682,
            -20.32899384215939,
            0
          ],
          [
            -40.28370787737834,
            -20.33001511003615,
            0
          ],
          [
            -40.28392172114596,
            -20.33166311845605,
            0
          ],
          [
            -40.28409509062962,
            -20.3328377276053,
            0
          ],
          [
            -40.28423956732308,
            -20.33395721735312,
            0
          ],
          [
            -40.28440854161948,
            -20.33521622199099,
            0
          ],
          [
            -40.28453112943703,
            -20.33602899777532,
            0
          ],
          [
            -40.28468296969778,
            -20.33703541797168,
            0
          ],
          [
            -40.28484499578626,
            -20.33768287554916,
            0
          ],
          [
            -40.28523863465362,
            -20.3383609619451,
            0
          ],
          [
            -40.28553722427905,
            -20.33865138712337,
            0
          ],
          [
            -40.28615261071584,
            -20.33901060364412,
            0
          ],
          [
            -40.28680761961495,
            -20.33937209071042,
            0
          ],
          [
            -40.28729590895233,
            -20.33959502336568,
            0
          ],
          [
            -40.2874414332969,
            -20.33964714058904,
            0
          ],
          [
            -40.28820063032132,
            -20.33966346887264,
            0
          ],
          [
            -40.28907783411997,
            -20.33971791678058,
            0
          ],
          [
            -40.28931341008355,
            -20.33984269201674,
            0
          ],
          [
            -40.28956301396047,
            -20.34005772056096,
            0
          ],
          [
            -40.28973334844184,
            -20.34028951019677,
            0
          ],
          [
            -40.28983233942982,
            -20.34051838031065,
            0
          ],
          [
            -40.28993346299389,
            -20.34115392444452,
            0
          ],
          [
            -40.29005122723235,
            -20.34213310823269,
            0
          ],
          [
            -40.29015489803154,
            -20.34295008737213,
            0
          ],
          [
            -40.29025719610683,
            -20.34395251646891,
            0
          ],
          [
            -40.2902401694969,
            -20.34412077502712,
            0
          ],
          [
            -40.2900829586585,
            -20.34418634855451,
            0
          ],
          [
            -40.28965868756183,
            -20.34425252584984,
            0
          ],
          [
            -40.28859023082977,
            -20.34442503061724,
            0
          ],
          [
            -40.28828855211089,
            -20.34275541315091,
            0
          ],
          [
            -40.28967240451656,
            -20.3424824975004,
            0
          ],
          [
            -40.28994275948651,
            -20.34240428032326,
            0
          ],
          [
            -40.2899017191734,
            -20.34191225532899,
            0
          ]
        ]
      },
      "properties": {
        "data_versao": "07_12_2025",
        "tipo_linha": "Bike GV",
        "codigo_linha": "400",
        "itinerario": "400V_C",
        "terminal_origem": "não integrada",
        "terminal_destino": "não integrada"
      }
    }
  ]
}